Business,Contact,Metro,City,State,Category,Email,Phone,Website
"Best 15 Kitchen & Bathroom Remodelers in Jensen Beach, FL",NEEDS_ENRICHMENT,Jensen Beach,Jensen Beach,FL,restaurant,info@houzz.com,,https://www.houzz.com/professionals/kitchen-and-bath-remodelers/jensen-beach-fl-us-probr0-bo~t_11825~r_4160171
"Best 15 Kitchen Remodelers in Jensen Beach, FL",NEEDS_ENRICHMENT,Jensen Beach,Jensen Beach,FL,restaurant,info@houzz.com,,https://www.houzz.com/professionals/kitchen-remodelers/jensen-beach-fl-us-probr0-bo~t_34334~r_4160171?fi=15
CONTACT US,NEEDS_ENRICHMENT,Jensen Beach,Jensen Beach,FL,hoa,info@jensenbeachclub.com,,https://www.jensenbeachclub.com/contact-us
CONTACT US | mysite - Jensen Beach Club,NEEDS_ENRICHMENT,Jensen Beach,Jensen Beach,FL,property_mgmt,info@jensenbeachclub.com,,https://www.jensenbeachclub.com/contact-us
Cooke Construction,NEEDS_ENRICHMENT,Jensen Beach,Jensen Beach,FL,restaurant,info@cookeconstructioninc.com,,https://cookeconstructioninc.com/
Crawdaddy - Jensen Beach,NEEDS_ENRICHMENT,Jensen Beach,Jensen Beach,FL,restaurant,info@crawdaddysjensenbeach.com,,https://crawdaddysjensenbeach.com/
GLS Remodeling | Kitchen & Bathroom Remodeling | Martin & St ...,NEEDS_ENRICHMENT,Jensen Beach,Jensen Beach,FL,kitchen,info@glsremodeling.com,,https://www.glsremodeling.com/
General Contractor Jensen Beach Florida Sweet Industries,NEEDS_ENRICHMENT,Jensen Beach,Jensen Beach,FL,kitchen,info@sweetgc.com,,https://sweetgc.com/
"Get Kitchen Remodeling in Jensen Beach, FL",NEEDS_ENRICHMENT,Jensen Beach,Jensen Beach,FL,restaurant,info@jupiterkitchenrenovation.com,,https://jupiterkitchenrenovation.com/kitchen-remodeling-jensen-beach-fl
Gutter Installation & Downspout Services | Gutter Guy Inc.,NEEDS_ENRICHMENT,Jensen Beach,Jensen Beach,FL,gutter,info@gutterguyofflorida.com,,https://gutterguyofflorida.com/
"Gutter Installation Jensen Beach, FL – Veteran Owned – Stateline ...",NEEDS_ENRICHMENT,Jensen Beach,Jensen Beach,FL,gutter,sales@statelinegutters.com,,https://www.statelinegutters.com/florida/jensen-beach-gutter-installation/
"Gutter Installation in Jensen Beach, FL, 34957 - Lowe's",,Jensen Beach,Jensen Beach,FL,gutter,DLBlanton@bellsouth.net,(772) 692-7745,https://www.lowes.com/store/0703-jensen-beach-fl/gutter-installation
Home,NEEDS_ENRICHMENT,Jensen Beach,Jensen Beach,FL,hoa,info@jbcchoa.com,,https://www.jbcchoa.com
"Home Remodeling Jensen Beach, FL | db Home Improvements",NEEDS_ENRICHMENT,Jensen Beach,Jensen Beach,FL,kitchen,info@dbhiproducts.com,,https://www.dbhiproducts.com/home-remodeling-contractor-in-jensen-beach-fl/
Home Services at Jensen Beach #221,,Jensen Beach,Jensen Beach,FL,restaurant,cgallant@floridaelkscts.org,(844) 476-2140,https://www.homedepot.com/l/Jensen-Beach/FL/Jensen-Beach/34957/221/services
Islandia II Condominium,NEEDS_ENRICHMENT,Jensen Beach,Jensen Beach,FL,hoa,info@islandiatwo.com,,https://islandiatwo.com/
Jensen Beach Club,NEEDS_ENRICHMENT,Jensen Beach,Jensen Beach,FL,hoa,info@jensenbeachclub.com,,https://www.jensenbeachclub.com/
"Jensen Beach Club Assoc, 4500 NE Ocean Blvd, Jensen Beach, FL 34957, US",,Jensen Beach,Jensen Beach,FL,hoa,,,https://www.mapquest.com/us/florida/jensen-beach-club-assoc-305912741
Jensen Beach Club Condos For Sale,NEEDS_ENRICHMENT,Jensen Beach,Jensen Beach,FL,hoa,info@zfc.com,,https://www.zfc.com/real-estate/Jensen-Beach/Jensen-Beach-Club/
Jensen Beach Club Hutchinson Island 6 Homes for Sale,V4_NO_DATA,Jensen Beach,Jensen Beach,FL,hoa,info@echofineproperties.com,,https://www.echofineproperties.com/communities/hutchinson-island/jensen-beach-club/
"Jensen Beach Club, Hutchinson Island, FL Condos For Sale",NEEDS_ENRICHMENT,Jensen Beach,Jensen Beach,FL,hoa,info@amprorealty.com,,https://amprorealty.com/martin-county/hutchinson-island-fl-real-estate/jensen-beach-club/
Jensen Beach FL,NEEDS_ENRICHMENT,Jensen Beach,Jensen Beach,FL,restaurant,info@dreammaker-stuart.com,,https://www.dreammaker-stuart.com/areas-we-serve/jensen-beach-fl/
Jensen Beach FL Seamless Gutter Services by Gutter Hawk,NEEDS_ENRICHMENT,Jensen Beach,Jensen Beach,FL,gutter,info@gutterhawks.com,,https://www.gutterhawks.com/locations/jensen-beach
Jensen Beach Home Renovations | Licensed & Insured,NEEDS_ENRICHMENT,Jensen Beach,Jensen Beach,FL,kitchen,info@homeandbeyondfl.com,,https://www.homeandbeyondfl.com/jensen-beach
Jensen Beach Kitchen and Bath Remodeling,NEEDS_ENRICHMENT,Jensen Beach,Jensen Beach,FL,kitchen,info@jensenbeachkitchenandbath.com,,https://jensenbeachkitchenandbath.com/
Jensen Beach Property Management,NEEDS_ENRICHMENT,Jensen Beach,Jensen Beach,FL,property_mgmt,info@homepropertymanagement.com,,https://www.homepropertymanagement.com/jensen-beach-property-management
Jensen Beach Property Management - Snowbird Caretaker Services,NEEDS_ENRICHMENT,Jensen Beach,Jensen Beach,FL,property_mgmt,info@snowbirdcaretakers.com,,https://snowbirdcaretakers.com/jensen-beach/
Jensen Beach Property Management | RPM Sailfish Coast,NEEDS_ENRICHMENT,Jensen Beach,Jensen Beach,FL,property_mgmt,info@rpmsailfishcoast.com,,https://www.rpmsailfishcoast.com/areas-we-serve/jensen-beach
Jensen Beach Seamless Gutters,,Jensen Beach,Jensen Beach,FL,gutter,gutterguy@gutterguyfl.com,772-334-3139,https://raincontrolseamlessgutters.com/jensen-beach-gutters/
Jensen Seamless Gutters,,Jensen Beach,Jensen Beach,FL,gutter,gutterguy@gutterguyfl.com,772-334-3139,https://unitedseamlessgutters.com/jensen-seamless-gutters
"Kitchen & Bathroom Remodeling in Jensen Beach, FL",NEEDS_ENRICHMENT,Jensen Beach,Jensen Beach,FL,kitchen,info@glsremodeling.com,,https://www.glsremodeling.com/jensenbeach
Kitchen Remodeling,NEEDS_ENRICHMENT,Jensen Beach,Jensen Beach,FL,restaurant,info@sweetgc.com,,https://sweetgc.com/kitchen-remodeling/
Kitchen Remodeling Services In Jensen Beach - Coastal Flooring,NEEDS_ENRICHMENT,Jensen Beach,Jensen Beach,FL,kitchen,info@coastalflooring.net,,https://coastalflooring.net/kitchen-remodeling-services-in-jensen-beach/
Mulligan's Beach House,NEEDS_ENRICHMENT,Jensen Beach,Jensen Beach,FL,restaurant,info@mulligansbeachhouse.com,,https://www.mulligansbeachhouse.com/
Property Management - Beach Front Mann Realty,,Jensen Beach,Jensen Beach,FL,property_mgmt,sean@beachfrontrealty.net,800-247-4862,https://beachfrontmannrealty.com/property-management/
Property Management Treasure Coast - Home,,Jensen Beach,Jensen Beach,FL,property_mgmt,TreasureCoast@itrip.net,(772) 486-1035,https://pmtcrentals.com/
Property Manager | JBCC HOA,NEEDS_ENRICHMENT,Jensen Beach,Jensen Beach,FL,property_mgmt,info@jbcchoa.com,,https://www.jbcchoa.com/property-manager
Remodeling Contractor Jensen Beach | Island Kitchen & Bath,NEEDS_ENRICHMENT,Jensen Beach,Jensen Beach,FL,kitchen,info@ikbconstruction.com,,https://ikbconstruction.com/areas-of-service/jensen-beach-remodeling-contractor/
Remodeling Contractor: Island Kitchen & Bath,NEEDS_ENRICHMENT,Jensen Beach,Jensen Beach,FL,restaurant,info@ikbconstruction.com,,https://ikbconstruction.com/
"Restaurant Construction in Jensen Beach, FL",NEEDS_ENRICHMENT,Jensen Beach,Jensen Beach,FL,restaurant,info@aegenconstruction.com,,https://www.aegenconstruction.com/restaurant-construction
Restaurants In Jensen Beach Florida | Discover Martin County,NEEDS_ENRICHMENT,Jensen Beach,Jensen Beach,FL,restaurant,info@discovermartin.com,,https://discovermartin.com/see-do/dining-food/
Restaurants Jensen Beach | Seafood Restaurant Jensen Beach,NEEDS_ENRICHMENT,Jensen Beach,Jensen Beach,FL,restaurant,info@conchyjoes.com,,https://conchyjoes.com/
"Seamless Gutters | Jensen Beach, FL",,Jensen Beach,Jensen Beach,FL,gutter,gutterguy@gutterguyfl.com,772-334-3139,https://budgetgutters.com/contact-us/martin-county-gutters/jensen-beach-gutters/
"Serving Jensen beach, FL - Prestige Remodeling Contractors LLC",V4_NO_DATA,Jensen Beach,Jensen Beach,FL,kitchen,Info@prc-experts.con,(561) 563-5444,https://prestigeremodelingcontractors.org/jensen-beach
TC Rentals & Property Management: Home,,Jensen Beach,Jensen Beach,FL,property_mgmt,rentals@tcpropt.com,(772) 225-6742,https://treasurecoast.net/
"The 10 Best Restaurants Near Me in Jensen Beach, FL | OpenTable",NEEDS_ENRICHMENT,Jensen Beach,Jensen Beach,FL,restaurant,info@opentable.com,,https://www.opentable.com/nearby/restaurants-near-me-jensen-beach
"The Best Restaurants in Jensen Beach, Florida - Trip Canvas - AAA",,Jensen Beach,Jensen Beach,FL,restaurant,takotikijensenbeach@gmail.com,(772) 208-5554,https://www.aaa.com/tripcanvas/jensen-beach-fl/category/restaurants
"The Nest | American Restaurant in Jensen Beach, FL",NEEDS_ENRICHMENT,Jensen Beach,Jensen Beach,FL,restaurant,info@nestontheriver.com,,https://www.nestontheriver.com/
The Princess Condominium,NEEDS_ENRICHMENT,Jensen Beach,Jensen Beach,FL,hoa,info@princesscondo.net,,https://princesscondo.net/
"Top Jensen Beach, Florida Property Management Companies | APM",NEEDS_ENRICHMENT,Jensen Beach,Jensen Beach,FL,property_mgmt,info@allpropertymanagement.com,,https://www.allpropertymanagement.com/property-management/fl/jensen-beach/
