Business,Contact,Metro,City,State,Category,Email,Phone,Website
"55+ Communities in Port St. Lucie and Fort Pierce, Florida",NEEDS_ENRICHMENT,Port St Lucie,Port St Lucie,FL,healthcare,info@spanishlakes.com,,https://spanishlakes.com/
55+ Community in Port St. Lucie,NEEDS_ENRICHMENT,Port St Lucie,Port St Lucie,FL,healthcare,info@encoreattradition.com,,https://www.encoreattradition.com/
"Apartments in Port St. Lucie, FL",,Port St Lucie,Port St Lucie,FL,property_manager,,(772) 667-5390,https://www.zrsapartments.com/florida/port-st-lucie/
Assisted Living Facility in Port St. Lucie,NEEDS_ENRICHMENT,Port St Lucie,Port St Lucie,FL,healthcare,info@colliersassistedliving.com,,https://colliersassistedliving.com/port-st-lucie-assisted-living/
Auto Body Services,NEEDS_ENRICHMENT,Port St Lucie,Port St Lucie,FL,auto_shop,info@allroadsrepair.com,,https://www.allroadsrepair.com/auto-body
Auto Body Shop,NEEDS_ENRICHMENT,Port St Lucie,Port St Lucie,FL,auto_shop,info@jhcc.com,,https://jhcc.com/locations/auto-body-shop-port-st-lucie/
"Auto Body Shop near Port Saint Lucie, FL 34952",NEEDS_ENRICHMENT,Port St Lucie,Port St Lucie,FL,auto_shop,admin@carwise.com,,https://www.carwise.com/auto-body-shops/34952
"Best Auto Body Shops near Port Saint Lucie, FL",NEEDS_ENRICHMENT,Port St Lucie,Port St Lucie,FL,auto_shop,admin@carwise.com,,https://www.carwise.com/auto-body-shops/fl/port%2520saint%2520lucie
"Best Property Management Companies in Port St. Lucie, FL",NEEDS_ENRICHMENT,Port St Lucie,Port St Lucie,FL,property_manager,info@expertise.com,,https://www.expertise.com/business/property-management/florida/port-st-lucie
"Choice Properties | Property management | Port Saint Lucie, FL, USA",NEEDS_ENRICHMENT,Port St Lucie,Port St Lucie,FL,property_mgmt,info@choicepropertiespsl.com,,https://www.choicepropertiespsl.com/
Classic Collision Port Saint Lucie,NEEDS_ENRICHMENT,Port St Lucie,Port St Lucie,FL,auto_shop,contact@classiccollision.com,,https://classiccollision.com/locations/classic-collision-port-saint-lucie/
Collision Repair in Port St Lucie,NEEDS_ENRICHMENT,Port St Lucie,Port St Lucie,FL,auto_shop,info@crashchampions.com,,https://crashchampions.com/locations/port-st-lucie
Divine Association Management LLC: Community Association | Florida,NEEDS_ENRICHMENT,Port St Lucie,Port St Lucie,FL,hoa,info@divineassociations.com,,https://www.divineassociations.com/
Florida Property Management Agency,NEEDS_ENRICHMENT,Port St Lucie,Port St Lucie,FL,property_manager,property.manager@mgtspec.com/,,https://www.mgtspec.com/
Gizze Construction Inc,,Port St Lucie,Port St Lucie,FL,Kitchen Renovation,Gizzeconstruction@gmail.com,772-333-5655,https://gizzeconstructioninc.com/
"HOA Management Companies in Port St. Lucie, Florida",NEEDS_ENRICHMENT,Port St Lucie,Port St Lucie,FL,hoa,info@hoamanagement.com,,https://www.hoamanagement.com/city/port-st-lucie-fl/
Harbor Place at Port St. Lucie,NEEDS_ENRICHMENT,Port St Lucie,Port St Lucie,FL,healthcare,info@centurypa.com,,https://www.centurypa.com/senior-living/harbor-place-port-st-lucie/
Home,NEEDS_ENRICHMENT,Port St Lucie,Port St Lucie,FL,healthcare,hello@avivaportstlucie.com,,https://avivaportstlucie.com/
Keystone Property Management Group,NEEDS_ENRICHMENT,Port St Lucie,Port St Lucie,FL,hoa,info@kpmgcommunitycare.com,,https://www.kpmgcommunitycare.com/
Lang Management - Association Management Services,NEEDS_ENRICHMENT,Port St Lucie,Port St Lucie,FL,hoa,info@langmgmt.com,,https://langmgmt.com/
"New Construction Homes for Sale in Port St. Lucie, FL | Realtor.com®",,Port St Lucie,Port St Lucie,FL,construction,,(866) 833-3715,https://www.realtor.com/realestateandhomes-search/Port-St.-Lucie_FL/shw-nc
"New Construction Homes in Port Saint Lucie, FL | 87 Communities",NEEDS_ENRICHMENT,Port St Lucie,Port St Lucie,FL,construction,info@newhomesource.com,,https://www.newhomesource.com/communities/fl/martin-st.-lucie-okeechobee-counties-area/port-saint-lucie
"New Homes In Port St. Lucie, Florida For Sale",NEEDS_ENRICHMENT,Port St Lucie,Port St Lucie,FL,construction,info@ryanhomes.com,,https://www.ryanhomes.com/new-homes/communities/florida/port-st.-lucie
New Homes Port St. Lucie | Maronda Homes,NEEDS_ENRICHMENT,Port St Lucie,Port St Lucie,FL,construction,info@marondahomes.com,,https://www.marondahomes.com/fl/port-st-lucie/port-st-lucie-34983.html
"New homes for sale & real estate in Port St. Lucie, FL - Redfin",,Port St Lucie,Port St Lucie,FL,construction,,844-759-7732,https://www.redfin.com/city/15203/FL/Port-St-Lucie/new-homes
Nex-Gen Partners Property Management,NEEDS_ENRICHMENT,Port St Lucie,Port St Lucie,FL,property_manager,info@nex-genpartners.com,,https://nex-genpartners.com/
"Nex-Gen Partners Property Management | Port St. Lucie, FL ...",NEEDS_ENRICHMENT,Port St Lucie,Port St Lucie,FL,property_mgmt,info@nex-genpartners.com,,https://nex-genpartners.com/
Port Saint Lucie Property Management Companies,NEEDS_ENRICHMENT,Port St Lucie,Port St Lucie,FL,property_mgmt,sales@managemyproperty.com,,https://www.managemyproperty.com/find/florida/port-saint-lucie-property-management-companies-city
"Port Saint Lucie, FL New Construction Homes For Sale - 763 Listings",,Port St Lucie,Port St Lucie,FL,construction,,3290987704,"https://www.trulia.com/for_sale/Port_Saint_Lucie,FL/new_homes_lt/"
"Port Saint Lucie, FL New Construction Homes for Sale",NEEDS_ENRICHMENT,Port St Lucie,Port St Lucie,FL,construction,info@homes.com,,https://www.homes.com/port-saint-lucie-fl/new-construction/
Port St Lucie FL Auto Body Repair,NEEDS_ENRICHMENT,Port St Lucie,Port St Lucie,FL,auto_shop,info@gerbercollision.com,,https://www.gerbercollision.com/locations/port-st-lucie-fl
Port St Lucie property management,NEEDS_ENRICHMENT,Port St Lucie,Port St Lucie,FL,property_manager,admin@fsresidential.com/florida/offices/port-st-lucie-property-management/,,https://www.fsresidential.com/florida/offices/port-st-lucie-property-management/
Port St. Lucie Luxury Assisted Living,NEEDS_ENRICHMENT,Port St Lucie,Port St Lucie,FL,healthcare,admin@watercrestseniorliving.com,,https://watercrestseniorliving.com/st-lucie-west/
Port St. Lucie Property Management,NEEDS_ENRICHMENT,Port St Lucie,Port St Lucie,FL,hoa,info@campbellpropertymanagement.com,,https://www.campbellpropertymanagement.com/port-st-lucie-property-management
Port St. Lucie Property Management | SLW & Tradition,NEEDS_ENRICHMENT,Port St Lucie,Port St Lucie,FL,property_mgmt,info@ubarrealty.com,,https://ubarrealty.com/property-management-services/
"Port St. Lucie, FL New Homes For Sale by Lennar",NEEDS_ENRICHMENT,Port St Lucie,Port St Lucie,FL,construction,info@lennar.com,,https://www.lennar.com/new-homes/florida/treasure-coast/port-st-lucie
Property Management,NEEDS_ENRICHMENT,Port St Lucie,Port St Lucie,FL,property_manager,info@nex-genpartners.com,,https://nex-genpartners.com/services/property-management/
"Property Management Companies in Port Saint Lucie, FL",,Port St Lucie,Port St Lucie,FL,property_manager,Choicepropertiesrentals@gmail.com,772-871-2727,https://www.apartments.com/pmc/port-saint-lucie-fl/
"Property Managers in Port Saint Lucie, FL",,Port St Lucie,Port St Lucie,FL,property_manager,Choicepropertiesrentals@gmail.com,772-871-2727,https://www.zillow.com/professionals/property-manager-reviews/port-saint-lucie-fl/
Quest Property Management Services for Your Home,,Port St Lucie,Port St Lucie,FL,property_manager,,(772) 785-8884,https://questrealestatesolutions.com/
Real Property Management Dynamic,NEEDS_ENRICHMENT,Port St Lucie,Port St Lucie,FL,property_manager,support@rpmdynamic.com/,,https://www.rpmdynamic.com/
Sinceri Senior Living – The Gardens of Port St. Lucie,NEEDS_ENRICHMENT,Port St Lucie,Port St Lucie,FL,healthcare,info@sinceriseniorliving.com,,https://sinceriseniorliving.com/the-gardens-of-port-st-lucie/
St Lucie Property Management: Port St. Lucie Property Management ...,NEEDS_ENRICHMENT,Port St Lucie,Port St Lucie,FL,property_mgmt,info@stluciepropertymanagement.com,,https://stluciepropertymanagement.com/
"The Best Assisted Living Facilities in Port St. Lucie, FL",V4_NO_DATA,Port St Lucie,Port St Lucie,FL,healthcare,,,https://www.assistedliving.org/florida/port-saint-lucie/
The Brennity at Tradition Senior Living,V4_NO_DATA,Port St Lucie,Port St Lucie,FL,healthcare,,,https://www.brennitytradition.com/
The Palms of St. Lucie West,NEEDS_ENRICHMENT,Port St Lucie,Port St Lucie,FL,healthcare,info@fivestarseniorliving.com,,https://www.fivestarseniorliving.com/communities/fl/port-st-lucie/the-palms-of-st-lucie-west/
Vantazma Collision,NEEDS_ENRICHMENT,Port St Lucie,Port St Lucie,FL,auto_shop,info@vantazma-car-care.com,,https://www.vantazma-car-care.com/
Vesta Property Services – Florida HOA & Community Association ...,NEEDS_ENRICHMENT,Port St Lucie,Port St Lucie,FL,hoa,info@vestapropertyservices.com,,https://vestapropertyservices.com/
Watson Association Management - HOA & Property Management,,Port St Lucie,Port St Lucie,FL,hoa,paminfo@watsonrealtycorp.com,772-871-0004,https://www.watsonassociationmanagement.com/
Watson Property Management,V4_NO_DATA,Port St Lucie,Port St Lucie,FL,property_mgmt,info@watsonrent.com,,https://www.watsonrent.com/
