business_name,email,phone,website,city,state,category,lead_type,enrichment_needed,contact_name,notes
Property Boss LLC,Staff@propertybossllc.com,(772) 621-2273,https://www.propertybossllc.com/stuart,Stuart,FL,Property Management,,owner_name,,"Generic staff email. Website is a Wix site. Property management company in Stuart, FL. Could not locate specific owner name online."
Coastal Management Professionals,Accounting@cpmfl.com,561-310-9672,https://coastalmgmtpros.com/property-management-in-stuart-fl/,Stuart,FL,Property Management,,owner_name,,Generic accounting email. Property management company. Could not locate specific owner name online.
JC Epoxy Coatings,randerson3222@yahoo.com,(954) 994-8204,https://jcepoxycoatings.com/,Port St. Lucie,FL,Epoxy Flooring,,owner_name,R. Anderson,"Email ""randerson3222@yahoo.com"" appears to be personal - likely owner is R. Anderson (first initial + last name). JC Epoxy Coatings is an epoxy flooring company in Port St. Lucie."
Maaco Auto Body & Painting Stuart,stuartflmaaco@bellsouth.net,1204650995,https://www.maaco.com/locations/fl/stuart-11152/,Stuart,FL,Auto Body Shop,,owner_name,,"Generic location-based email. This is a Maaco franchise location in Stuart, FL. Maaco is a national chain. Owner likely a franchisee but specific name not found."
Gizze Construction Inc,Gizzeconstruction@gmail.com,772-333-5655,https://gizzeconstructioninc.com/,Port St Lucie,FL,Kitchen Renovation,,owner_name,Gizze,"Email suggests owner name ""Gizze"" (business name is Gizze Construction Inc). Construction company in Port St. Lucie specializing in kitchen renovation."
Signature Property Management,Ira@signaturepropertymgmt.com,772) 219-4474,https://www.signaturepropertymgmt.com/,Stuart,FL,hoa,,owner_name,Ira,"Email ""Ira@signaturepropertymgmt.com"" is personal - owner is likely Ira. Signature Property Management is a property management company in Stuart, FL."
Professional HOA & COA Services in Martin County,esposito@macombgov.org,1016146955,https://www.tamcare.com/hoa-coa-services-martin-county/,Stuart,FL,hoa,,owner_name,,"Email ""esposito@macombgov.org"" is a government email (Macomb County, Michigan), not a business owner. This listing appears to be incorrect - it references TamCare which may not be the actual business entity."
Coastal Property Management – Stuart & Jupiter – Condominium ...,susan.palmieri@cpmfl.com,772-600-8900,https://www.cpmfl.com/,Stuart,FL,hoa,,owner_name,Susan Palmieri,"Email ""susan.palmieri@cpmfl.com"" is clearly personal with full name. Owner is Susan Palmieri. Coastal Property Management serves Stuart & Jupiter areas."
Properties & Communities,kevin@stewartteam.com,(248) 759-5474,https://www.watsonassociationmanagement.com/properties/,Stuart,FL,hoa,,owner_name,Kevin,"Email ""kevin@stewartteam.com"" is personal. Owner is likely Kevin (first name only). Properties & Communities is managed by Watson Association Management."
Home Services at Jensen Beach #221,cgallant@floridaelkscts.org,(844) 476-2140,https://www.homedepot.com/l/Jensen-Beach/FL/Jensen-Beach/34957/221/services,Jensen Beach,FL,restaurant,,owner_name,,"Email ""cgallant@floridaelkscts.org"" is from Florida Elks organization, not a business owner. This appears to be an incorrect listing - references Home Depot location."
Trusted Cleaning Company in Stuart FL,ncsnatyka@gmail.com,772-220-7915,https://www.customcleaningtc.com/,Stuart,FL,cleaning,,owner_name,,
Florida Investment Properties,nabertke@gmail.com,(772) 763-8506,https://www.treasurecoasthomesales.com/buying-investment-properties/,Stuart,FL,real_estate,,owner_name,,
Treasure Coast Real Estate,John@tccommercialre.com,(772) 288-0632,https://www.reeftoranch.com/,Stuart,FL,real_estate,,owner_name,,
Treasure Coast Realty Group,Meluke@treasurecoastrg.com,(772) 288-0632,https://www.treasurecoastrealtygroup.com/,Stuart,FL,real_estate,,owner_name,,
RE/MAX Gold,Meconnormckinney.re@gmail.com,973-508-9425,https://www.remaxgoldflorida.com/,Stuart,FL,real_estate,,owner_name,,
Estate Listings on,spiersrealestate@gmail.com,(868) 622-2685,https://www.slccommercial.com/commercial-real-estate-listings-treasure-coast/,Stuart,FL,real_estate,,owner_name,,
Luxury Homes of the Treasure Coast,Kevin@TradewindRe.com,800-274-6637,https://luxhomestc.com/,Stuart,FL,real_estate,,owner_name,,
Treasure Coast Fl. Real Estate Articles,John@tccommericalre.com,(772) 288-0632,https://realestateexpoinc.com/articles/,Stuart,FL,real_estate,,owner_name,,
Wallace Chevrolet,ewallace@wallacechev.com,772-286-0155,https://www.wallacechevrolet.com/?srsltid=AfmBOopNn__4h6gHfTzP5_LGy-U5YPYAhDbbBEW5SdKXfzjgpjLBLLIe,Stuart,FL,auto_shop,,owner_name,,
Honda Dealership Stuart FL,events@hohmartin.org,(772) 286-4673,https://www.johnsonhondaofstuart.com/,Stuart,FL,auto_shop,,owner_name,,
"Wallace Chrysler, Jeep, Dodge, Ram & Wagoneer Dealership In ...",users@wallaceautogroup.net,772-291-5172,https://www.wallacecjd.com/?srsltid=AfmBOorlSn6JaJN7zDU4gP6dI2IL6n2skx1ksjZz0VgzKlEPoooQxAhB,Stuart,FL,auto_shop,,owner_name,,
Garage Floor Coating: Professional Epoxy Flooring,Floorcoatingpro@gmail.com,(772) 205-4627,https://indianriverconcretecoatings.com/,Vero Beach,FL,auto_shop,,owner_name,,
Palm City Handyman Service,tchomecarerepair@gmail.com,3459463101,https://therepairguyservices.com/handyman-services/,Palm City,FL,property_manager,,owner_name,,
"Handyman & Home Repair Services in Palm City, FL",tchomecarerepair@gmail.com,(772) 882-5798,https://www.acehandymanservices.com/offices/port-st-lucie/city/palm_city_services,Palm City,FL,property_manager,,owner_name,,
Martin County,eciampi@martin.fl.us,(772) 403-1064,https://scpmllc.com/service-areas/martin-county/,Palm City,FL,property_manager,,owner_name,,
Lawn Care and Lawn Maintenance,Contractors@BelmontProviderNetwork.com,(772) 263-1656,https://alphazetaent.com/lawn-care-and-lawn-maintenance-palm-city-fl/,Palm City,FL,property_manager,,owner_name,,
Beau Rivage Estates HOA,fenglund@bellsouth.net,1313679510,https://beaurivageestateshoa.org/,Stuart,FL,apartment_complex,,owner_name,,
"The Landings of Martin County | HOA in Stuart, FL",tkryzda@martin.fl.us,(772) 288-5939,https://tlomc.communitysite.com/,Stuart,FL,apartment_complex,,owner_name,,
Master Association - Welcome to Hammock Creek,Master.HammockCreek@gmail.com,772-334-8900,https://www.hammockcreekhoa.com/master-association.html,Stuart,FL,apartment_complex,,owner_name,,
Community Association - Reblawpa,sap@reblawpa.com,(772) 287-8045,https://reblawpa.com/areas-of-practice/community-association/,Stuart,FL,apartment_complex,,owner_name,,
JD Treasure Coast ALF in Florida - Oasis Senior Advisors,jlibratore@youroasisadvisor.com,(772) 214-0806,https://www.oasissenioradvisors.com/community-guide/florida/port-saint-lucie/jd-treasure-coast-alf/,Stuart,FL,healthcare,,owner_name,,
Castlewood Assisted Living Residence,brittanyf.cal@outlook.com,(605) 793-2234,https://www.castlewoodresidence.com/,Stuart,FL,healthcare,,owner_name,,
Independent Living - CarePatrol of The Treasure Coast,lvelez@carepatrol.com,(321) 273-2424,https://carepatrol.com/the-treasure-coast/services/independent-living/,Stuart,FL,healthcare,,owner_name,,
"Garage Floor Installations in Stuart, FL – 10X Better",tlosee@certapro.com,844-844-4164,https://www.floortekcoatings.com/posts/garage-floor-installations-stuart-fl,Stuart,FL,epoxy,,owner_name,,
"Professional Garage Floors in Palm City, FL - Floortek Coatings",customsurfacesolutionsllc@gmail.com,772-448-1968,https://www.floortekcoatings.com/garage-floor-palm-city,Palm City,FL,epoxy,,owner_name,,
Professional Concrete Floor Coatings Palm City FL | Call Us!,customsurfacesolutionsllc@gmail.com,561-905-0148,https://customsurfacellc.com/service-areas/florida/martin-county/palm-city/,Palm City,FL,epoxy,,owner_name,,
"Gutter Installation in Jensen Beach, FL, 34957 - Lowe's",DLBlanton@bellsouth.net,(772) 692-7745,https://www.lowes.com/store/0703-jensen-beach-fl/gutter-installation,Jensen Beach,FL,gutter,,owner_name,,
Jensen Seamless Gutters,gutterguy@gutterguyfl.com,772-334-3139,https://unitedseamlessgutters.com/jensen-seamless-gutters,Jensen Beach,FL,gutter,,owner_name,,
"Seamless Gutters | Jensen Beach, FL",gutterguy@gutterguyfl.com,772-334-3139,https://budgetgutters.com/contact-us/martin-county-gutters/jensen-beach-gutters/,Jensen Beach,FL,gutter,,owner_name,,
Jensen Beach Seamless Gutters,gutterguy@gutterguyfl.com,772-334-3139,https://raincontrolseamlessgutters.com/jensen-beach-gutters/,Jensen Beach,FL,gutter,,owner_name,,
Martin North Hospital | Cleveland Clinic,roiwestonfl@ccf.org,(772) 287-5200,https://my.clevelandclinic.org/locations/directions/546-martin-north-hospital,Stuart,FL,healthcare,,owner_name,,
Martin North Hospital | Cleveland Clinic Florida,PHPPRcontactus@providence.org,(772) 287-5200,https://my.clevelandclinic.org/florida/locations/martin-north-hospital,Stuart,FL,healthcare,,owner_name,,
"Cleveland Clinic Martin Health-Stuart in Stuart, FL - Health US News",singhr@ccf.org,(772) 223-2300,https://health.usnews.com/best-hospitals/area/fl/martin-medical-center-6391000,Stuart,FL,healthcare,,owner_name,,
Cleveland Clinic Martin North Hospital - Medicare,PHPPRcontactus@providence.org,772.287.5200,https://www.medicare.gov/care-compare/details/hospital/100044/view-all?city=Port%2520St.%2520Lucie&state=FL&zipcode=34987,Stuart,FL,healthcare,,owner_name,,
Treasure Coast Auto Spa: Treasure Coast Auto Detailing,ceramicprotcas@treasurecoastautospa.com,(772) 204-1286,https://tcautodetail.com/,Stuart,FL,detailing,,owner_name,,
Lio's Quality detailing,liosqdllc@gmail.com,(772) 348-9559,https://www.liosqualitydetailing.com/,Stuart,FL,detailing,,owner_name,,
Florida Finest Detailing: Home,ffdetailing77@gmail.com,772-377-0077,https://www.floridasfinestdetailing.com/,Stuart,FL,detailing,,owner_name,,
"Ceramic Coating Experts | Best Auto Detailing in Port St Lucie, Fort ...",showtimedetailing28@gmail.com,2006217259,https://www.redlinepremiumdetailing.com/,Stuart,FL,detailing,,owner_name,,
"Caterer Service in Treasure Coast, FL | Corporate Caterers - Menu",joe.stellato@gmail.com,772 286-0877,https://chicago.corpcaterers.com/location/corporate-caterers-treasure-coast-fl/full-menu/,Stuart,FL,restaurant,,owner_name,,
"Purple Olive: Catering Service | Saint Augustine, FL",purpleolive2004@gmail.com,(904) 461-1250,https://www.purple-olive.com/,Stuart,FL,restaurant,,owner_name,,
"The Best Restaurants in Jensen Beach, Florida - Trip Canvas - AAA",takotikijensenbeach@gmail.com,(772) 208-5554,https://www.aaa.com/tripcanvas/jensen-beach-fl/category/restaurants,Jensen Beach,FL,restaurant,,owner_name,,
Watson Association Management - HOA & Property Management,paminfo@watsonrealtycorp.com,772-871-0004,https://www.watsonassociationmanagement.com/,Port St Lucie,FL,hoa,,owner_name,,
MonkMobileDetailing: HOME,monkmobiledetailing@gmail.com,(772) 202-8871,https://www.monkmobiledetailing.com/,Stuart,FL,detailing,,owner_name,,
Tony's Showroom Finish Detailing: Top Car Detailing Services in ...,Stuart@auto-genie.co.uk,(772) 882-5877,https://tonysshowroomfinishdetailing1.sitesgpt.com/,Stuart,FL,detailing,,owner_name,,
palm realty and property management services,office.prpm@gmail.com,941-661-2019,https://www.rentalsbypalm.com/,Palm City,FL,property_mgmt,,owner_name,,
"Metal Roofing Contractor | Stuart, FL - Leo Roofing & Construction",resume@leorc.com,(561) 861-3991,https://www.leoroofingfl.com/blog/2025/september/metal-roofing-contractor-stuart-fl/,Stuart,FL,roofing,,owner_name,,
Treasure Coast Realtors | Homes & Real Estate in Florida,themazurssell@aol.com,(772) 286-1900,https://www.buytreasurecoastproperty.com/,Stuart,FL,real_estate,,owner_name,,
Property Management - Beach Front Mann Realty,sean@beachfrontrealty.net,800-247-4862,https://beachfrontmannrealty.com/property-management/,Jensen Beach,FL,property_mgmt,,owner_name,,
TC Rentals & Property Management: Home,rentals@tcpropt.com,(772) 225-6742,https://treasurecoast.net/,Jensen Beach,FL,property_mgmt,,owner_name,,
"Bathroom Remodeling | Stuart, FL",isaac@tileanddecorusa.com,(772)-946-1986,https://www.superiortileinteriors.com/complete-bathroom-remodeling,Stuart,FL,bathroom,,owner_name,,
"Bathroom Remodeling Services | Stuart & Port St. Lucie, FL",isaac@tileanddecorusa.com,(772) 453-0909,https://bobbyandbrothershandyman.com/bathroom-remodeling,Stuart,FL,bathroom,,owner_name,,
Property Management Treasure Coast - Home,TreasureCoast@itrip.net,(772) 486-1035,https://pmtcrentals.com/,Jensen Beach,FL,property_mgmt,,owner_name,,
"Property Management Companies Near Me in Palm City, Florida",office.prpm@gmail.com,941-661-2019,https://global.showmelocal.com/local_search.aspx?q=property+management+companies&s=fl&c=palm+city,Palm City,FL,property_mgmt,,owner_name,,
Waterfront Stuart,waterfront@sandcrg.com,(772) 288-1881,https://thewaterfrontstuart.com/,Stuart,FL,restaurant,,owner_name,,
"Epoxy Flooring Palm City, FL | Durable Concrete Solutions",abdeali@chemsandcoatings.com,6479782153,https://vonpaving.com/epoxy-flooring-palm-city-fl/,Palm City,FL,epoxy,,owner_name,,
Gutter Contractor | The Brothers that just do Gutters,will@viralbitespos.com,1670199459,https://treasure-coast.brothersgutters.com/,Stuart,FL,gutter,,owner_name,,
"Property Managers in Port Saint Lucie, FL",Choicepropertiesrentals@gmail.com,772-871-2727,https://www.zillow.com/professionals/property-manager-reviews/port-saint-lucie-fl/,Port St Lucie,FL,property_manager,,owner_name,,
"Property Management Companies in Port Saint Lucie, FL",Choicepropertiesrentals@gmail.com,772-871-2727,https://www.apartments.com/pmc/port-saint-lucie-fl/,Port St Lucie,FL,property_manager,,owner_name,,
"Palm City Handyman, The Repair Guy",therepairguyjake@gmail.com,(772) 279-4277,https://therepairguyservices.com/,Palm City,FL,property_manager,,owner_name,,
"Bathroom Remodelers​ Stuart, FL | Adamo Painting",davidadamo779@gmail.com,(862) 344-4286,https://www.adamopainting.com/services/bathroom-remodelers/,Stuart,FL,bathroom,,owner_name,,
Coastal Management Professionals: Trusted Property Management ...,zachary@coastalrepros.com,561-310-9672,https://coastalmgmtpros.com/,Palm City,FL,property_mgmt,,owner_name,,
Human Resources – St Lucie Public Schools,EMP-GRV@stlucieschools.org,(772) 429-7508,https://www.stlucie.k12.fl.us/departments/human-resources/,Port St. Lucie,FL,school district facility,client,owner_name,,
Contact,Summerfield@advpropmgt.com,(772) 286-0081,https://www.summerfieldstuart.com/contact/,Stuart,FL,apartment complex manager,client,owner_name,,
Contractor Licensing,Contractorlicensing@cityofpsl.com,772-871-5132,https://www.cityofpsl.com/Government/Your-City-Government/Departments/Building/Contractor-Licensing,Port St. Lucie,FL,general contractor,contractor,owner_name,,
Contractor Licensing Division,Contractorlicensing@cityofpsl.com,772-871-5132,https://www.cityofpsl.com/Government/Your-City-Government/Departments/Building/Contractor-Licensing-Division,Port St. Lucie,FL,general contractor,contractor,owner_name,,
"New Audi and Used Cars near Jupiter, FL",Devin.Carlson@BrikellMotors.com,(877) 558-9737,https://www.audistuart.com/,Stuart,FL,auto dealership,client,owner_name,,
Home,jenn02hernandez@gmail.com,(772) 206-2771,https://hadymanatoz.com/,Stuart,FL,handyman service,contractor,owner_name,,
Contact Us Port St Lucie Hospital,admissions@portstluciehospitalinc.com,,https://www.portstluciehospitalinc.com/contact-us/,Port St. Lucie,FL,hospital medical facility,client,owner_name,,
Resources,charter@windsorjet.com,877-938-9508,https://beyondandabove.net/resources/,Stuart,FL,aircraft hangar,client,owner_name,,
Luxury Private Jet Maintenance,Brian.Whittredge@flyalliance.com,315-717-3580,https://flyalliance.com/maintenance/,Stuart,FL,aircraft hangar,client,owner_name,,
Roofing Port St Lucie,PDKRoofing.inc@gmail.com,772.528.0113,https://pdkroofinginc.com/,Port St. Lucie,FL,roofing contractor,contractor,owner_name,,
"Tropical Roofing Systems,. – Top quality roofing contractor on South Florida's Treasure Coast",trsiwb@att.net,(772) 287-1433,https://www.roofingcontractortc.com/,Port St. Lucie,FL,roofing contractor,contractor,owner_name,,
RCMA Childrens House Child Development Center,childrenshouse@rcma.org,(772) 388-0651,https://rcma.org/center/rcma-childrens-house-cdc/,Vero Beach,FL,daycare center,client,owner_name,,
First Presbyterian Preschool,lorie@firstpresvero.org,772-257-7238,https://firstpresbyterianpreschool.org/,Vero Beach,FL,daycare center,client,owner_name,,
"Rain Gutter Guards & Downspout Extensions Port St Lucie, PSL, Stuart FL",gutterguy@gutterguyfl.com,772-334-3139,https://gutterguyofflorida.com/contact-us/,Stuart,FL,gutter installation,contractor,owner_name,,
Luminous Nails & Spa,linhtrang75@yahoo.com,772-340-4060,https://luminousnailsandspastluciewest.com/,Port St. Lucie,FL,salon spa,client,owner_name,,
"Osceola Street Cafe in Stuart, Florida",osceolastcafe@gmail.com,(772) 283-6116,https://www.osceolastreet.com/,Stuart,FL,coffee shop cafe,client,owner_name,,
"Gilbert Plumbing in Port St. Lucie, Florida",gilbertplumbco@gmail.com,772-924-8362,https://gilbertplumb.com/,Port St. Lucie,FL,plumber,contractor,owner_name,,
"Property & Rental Management in Vero Beach, FL",TFox@sorensenrealestate.com,(772) 538-3733,https://verobeach.com/vero-beach-directories/property-and-rental-management,Vero Beach,FL,commercial property manager,client,owner_name,,
Superintendents,Buddy.Brown@hdsb.org,850-547-9341,https://www.fldoe.org/accountability/data-sys/school-dis-data/superintendents.stml,Vero Beach,FL,school district facility,client,owner_name,,
Gertrude Walden Child Care Center,t.m.wash@comcast.net,(772) 283.6321,https://www.gertrudewalden.org/p/4/contact-us,Stuart,FL,daycare center,client,owner_name,,
Central Stuart – Apple Tree Academy,appletreeacademy5@gmail.com,(772) 221-1775,https://www.apple-tree-academy.com/central-stuart/,Stuart,FL,daycare center,client,owner_name,,
South Stuart – Apple Tree Academy,appletreeacademy4@gmail.com,(772) 334-3281,https://www.apple-tree-academy.com/south-stuart/,Stuart,FL,daycare center,client,owner_name,,
Contact Us,cleanairtechinfo@gmail.com,772-335-2061,https://www.cleanairfl.com/contact-us,Port St. Lucie,FL,HVAC contractor,contractor,owner_name,,
"Vinyl Plank, Laminate & Hardwood Flooring",Shop@BuyRiteFlooring.com,772-559-7133,https://buyriteflooring.com/,Vero Beach,FL,hardwood flooring installer,contractor,owner_name,,
Company Profile Information Sheet Name Connery Concrete,jconnery@bellsouth.net,772-231-1224,https://bomanite.com/wp-content/uploads/2015/06/ConneryConcreteProfileSheet.pdf,Vero Beach,FL,concrete contractor,contractor,owner_name,,
Contact Our Storage Center,store@veroselfstorage.com,772-213-9974,https://www.veroselfstorage.com/contact-us/,Vero Beach,FL,cold storage facility,client,owner_name,,
"Contact Our Storage Center in Vero Beach, FL",manager@veromanagment.com,772-770-4522,https://www.courtsideselfstorage.com/contact/,Vero Beach,FL,cold storage facility,client,owner_name,,
Rio Coco Beans,riococobeans@gmail.com,(772) 492-6794,https://riococobeans.com/,Vero Beach,FL,coffee shop cafe,client,owner_name,,
Concrete Contractor,rachael@westbuildingcontractors.com,772-284-6994,https://www.westbuildingcontractors.com/contact,Stuart,FL,concrete contractor,contractor,owner_name,,
Home,cklein@tccommercialre.com,(772) 708-3236,https://tccommercialre.com/,Stuart,FL,commercial real estate,client,owner_name,,
Contact,AdvantagePM@advpropmgt.com,,https://www.summerfieldstuart.com/contact/,Stuart,FL,commercial property manager,client,owner_name,,
RT Commercial Real Estate,David.rtcommercial@gmail.com,772.262.8341,https://rt-cre.com/about-us-%2F-meet-our-team,Stuart,FL,commercial property manager,client,owner_name,,
Treasure Coast Commercial Real Estate for Sales and Leasing.,jaime@slccommercial.com,,https://www.slccommercial.com/,Stuart,FL,commercial property manager,client,owner_name,,
Contact The Vero Beach Inn & Suites,infovbis@paxproperties.com,(772) 567-8321,https://veroinn.com/contact-vero-beach-inn-and-suites/,Vero Beach,FL,hotel resort manager,client,owner_name,,
Coastal Property Management,susan.palmieri@cpmfl.com,772-600-8900,https://www.slghomeowners.com/coastal-property-management,Port St. Lucie,FL,commercial property manager,client,owner_name,,
Call Expert Electrician,anthonydiodato@gmail.com,772-528-5056,https://www.altelectricinc.com/contact-professional-electrical-crew,Port St. Lucie,FL,electrician,contractor,owner_name,,
Contact — Energy Spa and Salon,energyspasalon@gmail.com,(772) 562-3845,https://energyspaverobeach.com/contact,Vero Beach,FL,salon spa,client,owner_name,,
Calvetti and Co,letstalk@calvettiandco.com,(772) 770-9903,https://calvettiandco.com/contact,Vero Beach,FL,salon spa,client,owner_name,,
Contact,irrestaurantsupply@yahoo.com,(772) 567-1000,https://irrestaurantsupply.com/contact/,Vero Beach,FL,restaurant franchise,client,owner_name,,
Vero Beach Mulligans Beach House,mary@mulligansbeachsports.com,772.600.7377,https://www.mulligansbeachhouse.com/vero-beach/,Vero Beach,FL,restaurant franchise,client,owner_name,,
"Veterinarian in Vero Beach, FL",drphil@villagepetclinic.com,,https://www.villagepetclinic.com/,Vero Beach,FL,veterinary clinic,client,owner_name,,
Custom Paint,Custompaintservice1@gmail.com,(772) 226-7077,https://www.custompaintingservicellc.com/,Vero Beach,FL,painting contractor,contractor,owner_name,,
School District of Martin County,millayj@martinschools.org,(772) 219-1200,https://211pbtc.myresourcedirectory.com/index.php/component/cpx/?task=resource.view&id=3864313,Stuart,FL,school district facility,client,owner_name,,
District Student Services Directors,rusty.corley@marion.k12.fl.us,352-671-2192,https://www.fldoe.org/schools/k-12-public-schools/sss/dist-stu-serv-dir.stml,Stuart,FL,school district facility,client,owner_name,,
School District Virtual Contact Information,commissioner@fldoe.org,863-462-5000,https://www.fldoe.org/schools/school-choice/virtual-edu/directories/district-virtual-contacts.stml,Stuart,FL,school district facility,client,owner_name,,
CUSTOM FABRICATION CONTRACT MANUFACTURING Your One Stop Source Visit,programs@itstowers.com,772 567 3423,https://www.willburt.com/wp-content/Contract%20Manufacturing%20Brochure_WEB.pdf,Vero Beach,FL,manufacturing plant,client,owner_name,,
Mulligan’s Beach House,mary@mulligansbeachsports.com,(772) 492-6744,https://www.mulligansbeachhouse.com/,Vero Beach,FL,restaurant owner,client,owner_name,,
FORT LAUDERDALE FBO,INFO_FLL@FBAVIATION.COM,954-887-6787,https://fontainebleauaviation.com/fort-lauderdale/,Port St. Lucie,FL,aircraft hangar,client,owner_name,,
Florida Life HandyMan,Floridalifehandyman@yahoo.com,(772) 528-1929,https://floridalifehandyman.com/home,Port St. Lucie,FL,handyman service,contractor,owner_name,,
Vet Near Me 34997,ssah@bellsouth.net,772-287-0024,https://stuartsound.com/,Stuart,FL,veterinary clinic,client,owner_name,,
Pet Clinic Near Me 34997,ssah@bellsouth.net,772-287-0024,https://stuartsound.com/our-practice/,Stuart,FL,veterinary clinic,client,owner_name,,
CCVB,church@ccvb.net,772-778-8819,https://ccvb.net/,Vero Beach,FL,church religious facility,client,owner_name,,
Trinity Episcopal Church & School,ahiser@TrinityVero.org,(772.567.1146,https://trinityvero.org/,Vero Beach,FL,church religious facility,client,owner_name,,
Vero Beach Alliance Church,gramsh4christ@yahoo.com,(772) 567-6719,https://www.verobeachalliancechurch.com,Vero Beach,FL,church religious facility,client,owner_name,,
#worklocalstlucie,bostonhousechef@gmail.com,,https://youredc.com/worklocal,Port St. Lucie,FL,industrial plant manager,client,owner_name,,
Local Drum Shops,stix@Drummersonly.com,772-337-4002,https://www.localdrumshops.com/detail/130,Port St. Lucie,FL,retail store owner,client,owner_name,,
Starting a Business in St. Lucie County,BusinessNavigator@StLucieCo.org,,https://www.stlucieco.gov/departments-and-services/planning-and-development-services/economic-development/starting-a-business-in-st-lucie-county,Port St. Lucie,FL,retail store owner,client,owner_name,,
"Epoxy Flooring Contractor Port St. Lucie, FL",cma122710@yahoo.com,772-800-2900,https://cjepoxy.com/port-st-lucie/,Port St. Lucie,FL,epoxy flooring contractor,contractor,owner_name,,
Custom Cabinets,capital32967@aol.com,(772) 794-4660,https://www.capitalcabinets.net/about-us,Vero Beach,FL,cabinet maker,contractor,owner_name,,
Kitchen Cabinets,capital32967@aol.com,(772) 794-4660,https://www.capitalcabinets.net/,Vero Beach,FL,cabinet maker,contractor,owner_name,,
Indian River Cabinet Design,rick@verocabinets.com,772-567-6636,https://indianrivercabinetdesign.com/,Vero Beach,FL,cabinet maker,contractor,owner_name,,
Cabinet Remodeling,capital32967@aol.com,(772) 794-4660,https://www.capitalcabinets.net/gallery,Vero Beach,FL,cabinet maker,contractor,owner_name,,
Custom Cabinets,designsincab@aol.com,772-299-4585,https://designsincabinets.com/,Vero Beach,FL,cabinet maker,contractor,owner_name,,
PDQ Chicken — PDQ Tradition/Port St. Lucie,pdq430@eatpdq.com,772-577-5364,https://www.eatpdq.com/locations/port-st-lucie,Port St. Lucie,FL,restaurant franchise,client,owner_name,,
Florida SART,alopez@martin.fl.us,,https://flsart.org/viewcounty?pageID=0&countyID=42,Stuart,FL,fire station,client,owner_name,,
Cabinet Installation Port Saint Lucie Fl,allstarcarpetandtiles1@yahoo.com,,https://allstarcarpetandtiles.com/cabinet-installation-service-port-st-lucie-fl/,Port St. Lucie,FL,cabinet maker,contractor,owner_name,,
Meet Our Talented Kia Staff Vero Beach FL,luism@toyotaofvero.com,772-732-0420,https://www.kiaofverobeach.com/staff.aspx,Vero Beach,FL,industrial plant manager,client,owner_name,,
"Rain Gutter Guards & Downspout Extensions Port St Lucie, PSL, Stuart FL",gutterguy@gutterguyfl.com,772-334-3139,https://gutterguyofflorida.com/contact-us/,Port St. Lucie,FL,gutter installation,contractor,owner_name,,
Express Laundry,Doubledowncoinlaundry@gmail.com,772-210-5907,https://express-laundry.com/locations/stuart.html,Stuart,FL,laundromat,client,owner_name,,
"Animal General Hospital, Veterinary hospital in Port St Lucie, Fl",agh@petsvet.com,772-344-8835,https://www.petsvet.com,Port St. Lucie,FL,veterinary clinic,client,owner_name,,
CONTACT US,ronnie@kirchmanconstruction.com,(772) 283-4256,https://kirchmanconstruction.com/contact-us,Stuart,FL,general contractor,contractor,owner_name,,
Cleveland Clinic Martin South Hospital,ombudsman@ccf.org,(772) 223-2300,https://211pbtc.myresourcedirectory.com/index.php/component/cpx/?task=resource.view&id=3866369,Stuart,FL,hospital medical facility,client,owner_name,,
Home,hoplife2013@yahoo.com,(772) 249-5055,https://www.hoplifebrewing.com/,Port St. Lucie,FL,brewery taproom,client,owner_name,,
Contact,hoplife2013@yahoo.com,(772) 249-5055,https://hoplife.com/contact/,Port St. Lucie,FL,brewery taproom,client,owner_name,,
Other Info,seton@steasparish.org,(772) 336-0282,https://seascatholicparish.org/36-other-info,Port St. Lucie,FL,church religious facility,client,owner_name,,
Contact Us –orate Air.,reservation@corporate-air.com,,https://corporate-air.com/contact-us/,Vero Beach,FL,aircraft hangar,client,owner_name,,
T-Hangar Layout Map,bdambeck@covb.org,,https://www.verobeachairport.com/t-hangarlayoutmap,Vero Beach,FL,aircraft hangar,client,owner_name,,
FAQ,airport@covb.org,(772) 978-4930,https://www.verobeachairport.com/faq,Vero Beach,FL,aircraft hangar,client,owner_name,,
Port St Lucie Epoxy Pros,support@epoxyportstlucie.com/,772-918-9687,https://www.epoxyportstlucie.com/,Port St. Lucie,FL,Epoxy Flooring,,personal_email,NEEDS_ENRICHMENT,
Port St Lucie property management,admin@fsresidential.com/florida/offices/port-st-lucie-property-management/,,https://www.fsresidential.com/florida/offices/port-st-lucie-property-management/,Port St Lucie,FL,property_manager,,personal_email,NEEDS_ENRICHMENT,
Real Property Management Dynamic,support@rpmdynamic.com/,,https://www.rpmdynamic.com/,Port St Lucie,FL,property_manager,,personal_email,NEEDS_ENRICHMENT,
"Best Property Management Companies in Port St. Lucie, FL",info@expertise.com,,https://www.expertise.com/business/property-management/florida/port-st-lucie,Port St Lucie,FL,property_manager,,personal_email,NEEDS_ENRICHMENT,
Property Management,info@nex-genpartners.com,,https://nex-genpartners.com/services/property-management/,Port St Lucie,FL,property_manager,,personal_email,NEEDS_ENRICHMENT,
"Martin, FL Property Management Companies",info@pamartinfl.gov,(772) 631-6450,https://www.campbellpropertymanagement.com/martin-property-management-companies,Stuart,FL,hoa,,personal_email,NEEDS_ENRICHMENT,
Palm Beach and Martin Counties Property Management,info@pa.martin.fl.us,(772) 288-5608,https://www.homepropertymanagement.com/south-florida-property-management,Stuart,FL,hoa,,personal_email,NEEDS_ENRICHMENT,
"Martin Property Management, Martin Property ...",info@pa.martin.fl.us,781.532.8250,https://www.homeriver.com/florida/martin-property-management,Stuart,FL,hoa,,personal_email,NEEDS_ENRICHMENT,
St. Lucie and Martin County Property Management Agency,info@mgtspec.com,(877) 665-5505,https://www.mgtspec.com/home-1-2/,Stuart,FL,hoa,,personal_email,NEEDS_ENRICHMENT,
"Best Auto Body Shops near Port Saint Lucie, FL",admin@carwise.com,,https://www.carwise.com/auto-body-shops/fl/port%2520saint%2520lucie,Port St Lucie,FL,auto_shop,,personal_email,NEEDS_ENRICHMENT,
Auto Body Shop,info@jhcc.com,,https://jhcc.com/locations/auto-body-shop-port-st-lucie/,Port St Lucie,FL,auto_shop,,personal_email,NEEDS_ENRICHMENT,
Classic Collision Port Saint Lucie,contact@classiccollision.com,,https://classiccollision.com/locations/classic-collision-port-saint-lucie/,Port St Lucie,FL,auto_shop,,personal_email,NEEDS_ENRICHMENT,
Port St Lucie FL Auto Body Repair,info@gerbercollision.com,,https://www.gerbercollision.com/locations/port-st-lucie-fl,Port St Lucie,FL,auto_shop,,personal_email,NEEDS_ENRICHMENT,
Collision Repair in Port St Lucie,info@crashchampions.com,,https://crashchampions.com/locations/port-st-lucie,Port St Lucie,FL,auto_shop,,personal_email,NEEDS_ENRICHMENT,
"Auto Body Shop near Port Saint Lucie, FL 34952",admin@carwise.com,,https://www.carwise.com/auto-body-shops/34952,Port St Lucie,FL,auto_shop,,personal_email,NEEDS_ENRICHMENT,
Vantazma Collision,info@vantazma-car-care.com,,https://www.vantazma-car-care.com/,Port St Lucie,FL,auto_shop,,personal_email,NEEDS_ENRICHMENT,
Auto Body Services,info@allroadsrepair.com,,https://www.allroadsrepair.com/auto-body,Port St Lucie,FL,auto_shop,,personal_email,NEEDS_ENRICHMENT,
"Get Kitchen Remodeling in Jensen Beach, FL",info@jupiterkitchenrenovation.com,,https://jupiterkitchenrenovation.com/kitchen-remodeling-jensen-beach-fl,Jensen Beach,FL,restaurant,,personal_email,NEEDS_ENRICHMENT,
Cooke Construction,info@cookeconstructioninc.com,,https://cookeconstructioninc.com/,Jensen Beach,FL,restaurant,,personal_email,NEEDS_ENRICHMENT,
Remodeling Contractor: Island Kitchen & Bath,info@ikbconstruction.com,,https://ikbconstruction.com/,Jensen Beach,FL,restaurant,,personal_email,NEEDS_ENRICHMENT,
Kitchen Remodeling,info@sweetgc.com,,https://sweetgc.com/kitchen-remodeling/,Jensen Beach,FL,restaurant,,personal_email,NEEDS_ENRICHMENT,
Jensen Beach FL,info@dreammaker-stuart.com,,https://www.dreammaker-stuart.com/areas-we-serve/jensen-beach-fl/,Jensen Beach,FL,restaurant,,personal_email,NEEDS_ENRICHMENT,
"Best 15 Kitchen & Bathroom Remodelers in Jensen Beach, FL",info@houzz.com,,https://www.houzz.com/professionals/kitchen-and-bath-remodelers/jensen-beach-fl-us-probr0-bo~t_11825~r_4160171,Jensen Beach,FL,restaurant,,personal_email,NEEDS_ENRICHMENT,
"Restaurant Construction in Jensen Beach, FL",info@aegenconstruction.com,,https://www.aegenconstruction.com/restaurant-construction,Jensen Beach,FL,restaurant,,personal_email,NEEDS_ENRICHMENT,
"Commercial Cleaning Services in Stuart, Florida",office@customcleaningtc.com,561-935-8549,https://enviro-master.com/commercial-cleaning-locations/melbourne-florida/stuart-florida-service-area,Stuart,FL,cleaning,,personal_email,NEEDS_ENRICHMENT,
"Stuart, FL Commercial Cleaning and Janitorial Services",info@stuartmartinchamber.org,772-220-7915,https://cleanproservicesllc.com/stuart-fl-commercial-janitorial-cleaning-company/,Stuart,FL,cleaning,,personal_email,NEEDS_ENRICHMENT,
"Cleaning Services Stuart, Jensen Beach FL 772-205-3994",info@dustintimecleaning.com,772-205-3994,https://dustintimecleaning.com/,Stuart,FL,cleaning,,personal_email,NEEDS_ENRICHMENT,
"Fresh and Clean Cleaning Service, Stuart, FL 34997, US",info@cleanandfreshcleaning.com,786-920-2105,https://www.mapquest.com/us/florida/fresh-and-clean-cleaning-service-543047965,Stuart,FL,cleaning,,personal_email,NEEDS_ENRICHMENT,
"Commercial Cleaning Services in Stuart, FL",office@customcleaningtc.com,772-287-1088,https://www.tarltoncleanteam.com/florida-1/commercial-cleaning-services-in-stuart%252C-fl,Stuart,FL,cleaning,,personal_email,NEEDS_ENRICHMENT,
Excellent Investment,sales@stewartsresort.com,1514742893,https://www.zillow.com/port-saint-lucie-fl/excellent-investment_att/,Stuart,FL,real_estate,,personal_email,NEEDS_ENRICHMENT,
Treasure Coast Real Estate: Treasure Coast Homes for Sale,info@treasurecoastmlssearch.com,1000570592,http://www.treasurecoastmlssearch.com/,Stuart,FL,real_estate,,personal_email,NEEDS_ENRICHMENT,
New & Used Cars For Sale,info@wallaceautogroup.com,772.218.7007,https://www.wallaceautogroup.com/?srsltid=AfmBOoqHWyl4_9Cg4VRl7tlnhcyWcs0zx0YJDbF6gYjSOELPXPt75ANB,Stuart,FL,auto_shop,,personal_email,NEEDS_ENRICHMENT,
"All Dealers in Stuart, FL 34997",sales@jldauto.net,(772) 288-2099,https://www.autotrader.com/car-dealers/stuart-fl,Stuart,FL,auto_shop,,personal_email,NEEDS_ENRICHMENT,
"Starling Buick GMC Dealership in Stuart, FL",info@starlingbuickgmcstuart.com,(772) 210-0299,https://www.starlingbuickgmcstuart.com/,Stuart,FL,auto_shop,,personal_email,NEEDS_ENRICHMENT,
Treasure Coast Toyota Of Stuart,info@treasurecoasttoyotaofstuart.com,(772) 283-8300,https://www.treasurecoasttoyotaofstuart.com/,Stuart,FL,auto_shop,,personal_email,NEEDS_ENRICHMENT,
Vero Beach Epoxy Floors by CJ Epoxy,info@cjepoxy.com,,https://cjepoxy.com/,Vero Beach,FL,auto_shop,,personal_email,NEEDS_ENRICHMENT,
ABOUT US,info@rtiepoxyfloors.com,,https://www.rtiepoxyfloors.com/about-us,Vero Beach,FL,auto_shop,,personal_email,NEEDS_ENRICHMENT,
Epoxy Flooring,info@buciopainting.net,,https://www.buciopainting.net/epoxy-flooring,Vero Beach,FL,auto_shop,,personal_email,NEEDS_ENRICHMENT,
"Best 15 Flooring Companies & Installers in Vero Beach, FL",info@houzz.com,,https://www.houzz.com/professionals/hardwood-flooring-dealers/vero-beach-fl-us-probr0-bo~t_28349~r_4176409,Vero Beach,FL,auto_shop,,personal_email,NEEDS_ENRICHMENT,
Epoxy Garage Flooring Solutions in Vero Beach,info@enhanceyourgarage.com,,https://enhanceyourgarage.com/epoxy-garage-flooring-solutions-vero-beach/,Vero Beach,FL,auto_shop,,personal_email,NEEDS_ENRICHMENT,
Modern Concrete Floor Coatings Vero Beach FL,info@customsurfacellc.com,,https://customsurfacellc.com/service-areas/florida/indian-river-county/vero-beach/,Vero Beach,FL,auto_shop,,personal_email,NEEDS_ENRICHMENT,
"Our Experienced Handyman Palm City, FL",info@tamcare.com,3459463101,https://www.mrhandyman.com/vero-beach-jupiter/geo/palm-city/,Palm City,FL,property_manager,,personal_email,NEEDS_ENRICHMENT,
Wolf's Landscape & Maintenance,info@wolfscuts.com,1000636144,https://www.mapquest.com/us/florida/wolfs-landscape-maintenance-470477436,Palm City,FL,property_manager,,personal_email,NEEDS_ENRICHMENT,
Martin Meadows | Home Owners Association – MMHOA,admin@martinmeadows.com,,https://martinmeadows.com/,Stuart,FL,apartment_complex,,personal_email,NEEDS_ENRICHMENT,
"The Best Assisted Living Facilities in Port St. Lucie, FL",info@brightenalf.comALF,772-237-5165,https://www.assistedliving.org/florida/port-saint-lucie/,Stuart,FL,healthcare,,personal_email,NEEDS_ENRICHMENT,
The Gardens of Port St. Lucie Senior Living,info@sinceriseniorliving.com,,https://sinceriseniorliving.com/the-gardens-of-port-st-lucie/,Stuart,FL,healthcare,,personal_email,NEEDS_ENRICHMENT,
"jd treasure coast assisted living facility, llc - Florida Health Finder",info@quality.healthfinder.fl.gov,(646) 823-7554,https://quality.healthfinder.fl.gov/Facility-Provider/Profile/?LID=538978,Stuart,FL,healthcare,,personal_email,NEEDS_ENRICHMENT,
"Treasure Coast ALF | Port St. Lucie, Florida Senior Living Community",info@seniorplacementgroup.com,(561) 510-8367,https://seniorplacementgroup.com/community/treasure-coast-alf/,Stuart,FL,healthcare,,personal_email,NEEDS_ENRICHMENT,
"10 Best Assisted Living Facilities in St Lucie County, FL",info@aplaceformom.com,(772) 207-7622,https://www.aplaceformom.com/assisted-living/florida/st-lucie-county,Stuart,FL,healthcare,,personal_email,NEEDS_ENRICHMENT,
Epoxy Garage Floor Solutions in Stuart,info@enhanceyourgarage.com,772.779.3799,https://enhanceyourgarage.com/epoxy-garage-floor-solutions-stuart/,Stuart,FL,epoxy,,personal_email,NEEDS_ENRICHMENT,
Jupiter Custom Garage Floor Coatings & Cabinets | GarageExperts®,info@garageexperts.com,(772) 222-6280,https://www.garageexperts.com/treasure-coast/,Stuart,FL,epoxy,,personal_email,NEEDS_ENRICHMENT,
Top Flooring Alternatives to Epoxy in Stuart - Floortek Coatings,info@floortekcoatings.com,(561) 565-0336,https://www.floortekcoatings.com/posts/top-flooring-alternatives-to-epoxy-floors-in-stuart,Stuart,FL,epoxy,,personal_email,NEEDS_ENRICHMENT,
Palm City Garage Floor Coatings | GarageExperts®,sales@comercrossgarage.com,(772) 222-6280,https://www.garageexperts.com/treasure-coast/palm-city/,Palm City,FL,epoxy,,personal_email,NEEDS_ENRICHMENT,
"Metallic Epoxy Flooring Experts in Palm City, Florida",info@superiorfloorcoating.com,,https://superiorfloorcoating.com/metallic-epoxy-palm-city-fl/,Palm City,FL,epoxy,,personal_email,NEEDS_ENRICHMENT,
"flooring contractors in palm city, fl",info@astonstuart.com,,https://www.astonstuart.com/flooring-installation-in-palm-city-fl,Palm City,FL,epoxy,,personal_email,NEEDS_ENRICHMENT,
"Concrete Flooring Installation in Palm City, FL",info@palmcityconcrete.com,,https://palmcityconcrete.com/concrete-flooring-installation,Palm City,FL,epoxy,,personal_email,NEEDS_ENRICHMENT,
THE 10 BEST Restaurants in Stuart (Updated February 2026),sales@tripadvisor.com,,https://www.tripadvisor.com/Restaurants-g34657-Stuart_Florida.html,Stuart,FL,restaurant,,personal_email,NEEDS_ENRICHMENT,
Dining - Historic Downtown Stuart,info@downtownstuartflorida.com,,https://downtownstuartflorida.com/dining/,Stuart,FL,restaurant,,personal_email,NEEDS_ENRICHMENT,
"The 10 Best Restaurants Near Me in Stuart, FL | OpenTable",info@opentable.com,,https://www.opentable.com/nearby/restaurants-near-me-stuart,Stuart,FL,restaurant,,personal_email,NEEDS_ENRICHMENT,
"Home - BOATHOUSE - Fish restaurant in Stuart, FL",info@stuartboathouse.com,,https://www.stuartboathouse.com/,Stuart,FL,restaurant,,personal_email,NEEDS_ENRICHMENT,
The Sailor's Return Restaurant in Stuart Florida (772) 872-7250,info@thesailorsreturn.com,,https://thesailorsreturn.com/,Stuart,FL,restaurant,,personal_email,NEEDS_ENRICHMENT,
"Stuart Fish Grill - Stuart, FL",info@stuartfishgrill.com,,https://stuartfishgrill.com/,Stuart,FL,restaurant,,personal_email,NEEDS_ENRICHMENT,
"The Black Marlin | Bar & Restaurant in Historic Stuart, Florida",contact@theblackmarlin.net,,https://theblackmarlin.net/,Stuart,FL,restaurant,,personal_email,NEEDS_ENRICHMENT,
Hudson's On The River | Waterfront Dining | Best restaurants in ...,info@hudsonontheriver.com,,https://www.hudsonontheriver.com/,Stuart,FL,restaurant,,personal_email,NEEDS_ENRICHMENT,
"New Construction Homes in Port Saint Lucie, FL | 87 Communities",info@newhomesource.com,,https://www.newhomesource.com/communities/fl/martin-st.-lucie-okeechobee-counties-area/port-saint-lucie,Port St Lucie,FL,construction,,personal_email,NEEDS_ENRICHMENT,
"New Homes In Port St. Lucie, Florida For Sale",info@ryanhomes.com,,https://www.ryanhomes.com/new-homes/communities/florida/port-st.-lucie,Port St Lucie,FL,construction,,personal_email,NEEDS_ENRICHMENT,
"Port Saint Lucie, FL New Construction Homes for Sale",info@homes.com,,https://www.homes.com/port-saint-lucie-fl/new-construction/,Port St Lucie,FL,construction,,personal_email,NEEDS_ENRICHMENT,
"Port St. Lucie, FL New Homes For Sale by Lennar",info@lennar.com,,https://www.lennar.com/new-homes/florida/treasure-coast/port-st-lucie,Port St Lucie,FL,construction,,personal_email,NEEDS_ENRICHMENT,
New Homes Port St. Lucie | Maronda Homes,info@marondahomes.com,,https://www.marondahomes.com/fl/port-st-lucie/port-st-lucie-34983.html,Port St Lucie,FL,construction,,personal_email,NEEDS_ENRICHMENT,
Gutter Installation & Downspout Services | Gutter Guy Inc.,info@gutterguyofflorida.com,,https://gutterguyofflorida.com/,Jensen Beach,FL,gutter,,personal_email,NEEDS_ENRICHMENT,
Jensen Beach FL Seamless Gutter Services by Gutter Hawk,info@gutterhawks.com,,https://www.gutterhawks.com/locations/jensen-beach,Jensen Beach,FL,gutter,,personal_email,NEEDS_ENRICHMENT,
"Gutter Installation Jensen Beach, FL – Veteran Owned – Stateline ...",sales@statelinegutters.com,,https://www.statelinegutters.com/florida/jensen-beach-gutter-installation/,Jensen Beach,FL,gutter,,personal_email,NEEDS_ENRICHMENT,
Jensen Beach Kitchen and Bath Remodeling,info@jensenbeachkitchenandbath.com,,https://jensenbeachkitchenandbath.com/,Jensen Beach,FL,kitchen,,personal_email,NEEDS_ENRICHMENT,
GLS Remodeling | Kitchen & Bathroom Remodeling | Martin & St ...,info@glsremodeling.com,,https://www.glsremodeling.com/,Jensen Beach,FL,kitchen,,personal_email,NEEDS_ENRICHMENT,
"Victory Kitchen & Bath | Remodeling, Cabinetry, Countertops & more",info@victorykb.com,,https://victorykb.com/,Jensen Beach,FL,kitchen,,personal_email,NEEDS_ENRICHMENT,
General Contractor Jensen Beach Florida Sweet Industries,info@sweetgc.com,,https://sweetgc.com/,Jensen Beach,FL,kitchen,,personal_email,NEEDS_ENRICHMENT,
"Hospitals near Stuart, FL - Healthgrades",admin@healthgrades.com,,https://www.healthgrades.com/hospital-directory/fl-florida/stuart,Stuart,FL,healthcare,,personal_email,NEEDS_ENRICHMENT,
HCA Florida Stuart Emergency,info@stuartmartinchamber.org,(772) 203-8015,https://www.hcafloridahealthcare.com/locations/stuart-emergency,Stuart,FL,healthcare,,personal_email,NEEDS_ENRICHMENT,
HOSPITALS/EMERGENCY ROOM Category | Stuart Martin County ...,info@business.stuartmartinchamber.org,,https://business.stuartmartinchamber.org/members/category/hospitals-154,Stuart,FL,healthcare,,personal_email,NEEDS_ENRICHMENT,
"Martin Memorial Hospital South, Stuart, FL - WellMed",info@doctors.wellmedhealthcare.com,,https://doctors.wellmedhealthcare.com/locations/details/4901,Stuart,FL,healthcare,,personal_email,NEEDS_ENRICHMENT,
"Top-rated Handyman in Stuart, FL",info@mrhandyman.com,,https://www.mrhandyman.com/vero-beach-jupiter/geo/stuart/,Stuart,FL,handyman,,personal_email,NEEDS_ENRICHMENT,
Handyman Services in Stuart FL | Home & Beyond,info@homeandbeyondfl.com,,https://www.homeandbeyondfl.com/handyman,Stuart,FL,handyman,,personal_email,NEEDS_ENRICHMENT,
"Handyman & Home Repair Services in Stuart, FL",info@acehandymanservices.com,,https://www.acehandymanservices.com/offices/port-st-lucie/city/stuart_services,Stuart,FL,handyman,,personal_email,NEEDS_ENRICHMENT,
Stuart Pressure Washing & Handyman LLC: Expert Pressure ...,info@pressurewashingandhandyman.com,,https://www.pressurewashingandhandyman.com/,Stuart,FL,handyman,,personal_email,NEEDS_ENRICHMENT,
MDS Auto Detailing,info@mdsautodetailing.com,,https://www.mdsautodetailing.com/,Stuart,FL,detailing,,personal_email,NEEDS_ENRICHMENT,
Doctor Detail of the Treasure Coast: Auto Detailing,info@ddoftc.com,,https://ddoftc.com/,Stuart,FL,detailing,,personal_email,NEEDS_ENRICHMENT,
Booking - Showtime Detailing,info@showtimedetailing.org,,https://showtimedetailing.org/booking/,Stuart,FL,detailing,,personal_email,NEEDS_ENRICHMENT,
HOME - DA Detailing - PSL,info@dadetailingpsl.com,,https://dadetailingpsl.com/,Stuart,FL,detailing,,personal_email,NEEDS_ENRICHMENT,
Full Service Catering | Treasure Coast | Home,info@snlevents.com,,https://www.snlevents.com/,Stuart,FL,restaurant,,personal_email,NEEDS_ENRICHMENT,
"Catering services along the Treasure Coast, FL - Corporate Caterers",info@corporatecaterers.com,,https://www.corporatecaterers.com/location/corporate-caterers-treasure-coast-fl/,Stuart,FL,restaurant,,personal_email,NEEDS_ENRICHMENT,
True Roots Catering | Vero Beach | Stuart | Palm Beach,info@truerootscatering.com,,https://www.truerootscatering.com/,Stuart,FL,restaurant,,personal_email,NEEDS_ENRICHMENT,
"Catering Revolution: Catering Services in Stuart, FL",info@cateringrevolution.com,,https://cateringrevolution.com/,Stuart,FL,restaurant,,personal_email,NEEDS_ENRICHMENT,
Premier Catering Services in Fort Pierce | Shelly's Bistro,info@shellyzbistro.com,,https://shellyzbistro.com/,Stuart,FL,restaurant,,personal_email,NEEDS_ENRICHMENT,
CT Catering,info@cheftablecatering.com,,https://www.cheftablecatering.com/,Stuart,FL,restaurant,,personal_email,NEEDS_ENRICHMENT,
Investment properties Martin County FL - Landmark Realty,info@landmarkinvestmentsflorida.com,,https://www.landmarkinvestmentsflorida.com/properties/investment-properties-martin-county-fl/,Stuart,FL,real_estate,,personal_email,NEEDS_ENRICHMENT,
CRA Investment Program | Martin County Florida,info@martin.fl.us,,https://www.martin.fl.us/CRAInvestmentProgram,Stuart,FL,real_estate,,personal_email,NEEDS_ENRICHMENT,
"Martin County, FL commercial real estate for sale - Realmo",info@realmo.com,,https://realmo.com/commercial-real-estate/for-sale/fl/martin-county/,Stuart,FL,real_estate,,personal_email,NEEDS_ENRICHMENT,
Martin County Existing Condo Sales Climb - MIAMI REALTORS®,info@miamirealtors.com,,https://www.miamirealtors.com/2025/11/20/martin-county-existing-condo-sales-climb/,Stuart,FL,real_estate,,personal_email,NEEDS_ENRICHMENT,
"Martin County, FL Homes for Sale - The Zecca Group",info@thezeccagroup.com,,https://www.thezeccagroup.com/martin-county-fl-homes-for-sale/?page=12,Stuart,FL,real_estate,,personal_email,NEEDS_ENRICHMENT,
Martin County Real Estate Market Update – September 2025,info@echofineproperties.com,,https://www.echofineproperties.com/martin-county-real-estate-market-update-september-2025/,Stuart,FL,real_estate,,personal_email,NEEDS_ENRICHMENT,
Restaurants In Jensen Beach Florida | Discover Martin County,info@discovermartin.com,,https://discovermartin.com/see-do/dining-food/,Jensen Beach,FL,restaurant,,personal_email,NEEDS_ENRICHMENT,
"The 10 Best Restaurants Near Me in Jensen Beach, FL | OpenTable",info@opentable.com,,https://www.opentable.com/nearby/restaurants-near-me-jensen-beach,Jensen Beach,FL,restaurant,,personal_email,NEEDS_ENRICHMENT,
"The Nest | American Restaurant in Jensen Beach, FL",info@nestontheriver.com,,https://www.nestontheriver.com/,Jensen Beach,FL,restaurant,,personal_email,NEEDS_ENRICHMENT,
Where to eat? Downtown Jensen Beach teems with restaurants,info@tcpalm.com,,https://www.tcpalm.com/story/entertainment/dining/2024/09/07/where-to-eat-downtown-jensen-beach-restaurants-near-me/73949353007/,Jensen Beach,FL,restaurant,,personal_email,NEEDS_ENRICHMENT,
Mulligan's Beach House,info@mulligansbeachhouse.com,,https://www.mulligansbeachhouse.com/,Jensen Beach,FL,restaurant,,personal_email,NEEDS_ENRICHMENT,
Restaurants Jensen Beach | Seafood Restaurant Jensen Beach,info@conchyjoes.com,,https://conchyjoes.com/,Jensen Beach,FL,restaurant,,personal_email,NEEDS_ENRICHMENT,
Crawdaddy - Jensen Beach,info@crawdaddysjensenbeach.com,,https://crawdaddysjensenbeach.com/,Jensen Beach,FL,restaurant,,personal_email,NEEDS_ENRICHMENT,
Office Cleaning in Stuart FL | Serving Treasure Coast,info@customcleaningtc.com,,https://www.customcleaningtc.com/commercial/office-cleaning-services/,Stuart,FL,cleaning,,personal_email,NEEDS_ENRICHMENT,
"Snap Clean: Cleaning Services in Treasure Coast, FL",hello@snapcleanservices.com,,https://www.snapcleanservices.com/,Stuart,FL,cleaning,,personal_email,NEEDS_ENRICHMENT,
Commercial Cleaning Services in Palm Beach and Treasure Coast,info@vanguardcleaning.com,,https://www.vanguardcleaning.com/cleaning/florida-palm-beach/,Stuart,FL,cleaning,,personal_email,NEEDS_ENRICHMENT,
Janitorial Services - FREEDOM COAST CLEANING SERVICES ...,info@freedomcoastcleaningservices.com,,https://freedomcoastcleaningservices.com/,Stuart,FL,cleaning,,personal_email,NEEDS_ENRICHMENT,
Treasure Coast Commercial Cleaning and Janitorial Services,info@cleanproservicesllc.com,,https://cleanproservicesllc.com/treasure-coast-commercial-janitorial-cleaning-company/,Stuart,FL,cleaning,,personal_email,NEEDS_ENRICHMENT,
Office Cleaning Services in South Florida,info@akbuildingservices.com,,https://www.akbuildingservices.com/cleaning-services-industries/office-cleaning-services/,Stuart,FL,cleaning,,personal_email,NEEDS_ENRICHMENT,
Top Treasure Coast Cleaning Company 360 Cleaning Solutions LLC,info@treasurecoastcleaningsolutions.com,,https://treasurecoastcleaningsolutions.com/,Stuart,FL,cleaning,,personal_email,NEEDS_ENRICHMENT,
Reliable Cleaning Services Of Treasure Coast LLC - Home,info@rcsoftreasurecoast.com,,https://rcsoftreasurecoast.com/,Stuart,FL,cleaning,,personal_email,NEEDS_ENRICHMENT,
"HOA Management Companies in Port St. Lucie, Florida",info@hoamanagement.com,,https://www.hoamanagement.com/city/port-st-lucie-fl/,Port St Lucie,FL,hoa,,personal_email,NEEDS_ENRICHMENT,
Keystone Property Management Group,info@kpmgcommunitycare.com,,https://www.kpmgcommunitycare.com/,Port St Lucie,FL,hoa,,personal_email,NEEDS_ENRICHMENT,
Divine Association Management LLC: Community Association | Florida,info@divineassociations.com,,https://www.divineassociations.com/,Port St Lucie,FL,hoa,,personal_email,NEEDS_ENRICHMENT,
Vesta Property Services – Florida HOA & Community Association ...,info@vestapropertyservices.com,,https://vestapropertyservices.com/,Port St Lucie,FL,hoa,,personal_email,NEEDS_ENRICHMENT,
Lang Management - Association Management Services,info@langmgmt.com,,https://langmgmt.com/,Port St Lucie,FL,hoa,,personal_email,NEEDS_ENRICHMENT,
Port St. Lucie Property Management,info@campbellpropertymanagement.com,,https://www.campbellpropertymanagement.com/port-st-lucie-property-management,Port St Lucie,FL,hoa,,personal_email,NEEDS_ENRICHMENT,
"General Contractor | Kirchman Construction Co. | Stuart, FL",info@kirchmanconstruction.com,,https://www.kirchmanconstruction.com/,Stuart,FL,construction,,personal_email,NEEDS_ENRICHMENT,
MEL-RY Construction Commercial & Residential Builders in Stuart FL,info@mel-ry.com,,https://www.mel-ry.com/,Stuart,FL,construction,,personal_email,NEEDS_ENRICHMENT,
Bayview Construction Services,info@bayviewconstruction.com,,https://www.bayviewconstruction.com/,Stuart,FL,construction,,personal_email,NEEDS_ENRICHMENT,
West Building Contractors | Stuart FL Construction Experts,info@westbuildingcontractors.com,,https://www.westbuildingcontractors.com/,Stuart,FL,construction,,personal_email,NEEDS_ENRICHMENT,
Crosby's Construction LLC: Home,info@crosbysconstructionfl.com,,https://crosbysconstructionfl.com/,Stuart,FL,construction,,personal_email,NEEDS_ENRICHMENT,
"Masterpiece Builders | Custom Home Builder Martin County, FL",info@masterpiecebuilders.com,,https://masterpiecebuilders.com/,Stuart,FL,construction,,personal_email,NEEDS_ENRICHMENT,
Straticon | South Florida Based Construction Management Company,info@straticon.com,,https://straticon.com/,Stuart,FL,construction,,personal_email,NEEDS_ENRICHMENT,
Commercial Cleaning - Eastside Chem-Dry,contact@eastsidechemdry.com,,https://eastsidechemdry.com/commercial-cleaning,Stuart,FL,cleaning,,personal_email,NEEDS_ENRICHMENT,
General Cleaning and Janitorial Services - Servpro,info@servpro.com,,https://www.servpro.com/locations/fl/servpro-of-martin-county/services/cleaning/general,Stuart,FL,cleaning,,personal_email,NEEDS_ENRICHMENT,
B & S Auto Detailing LLC: Superior Auto Detailing Services in Stuart ...,info@bnsautodetailing.com,,https://bnsautodetailing.com/,Stuart,FL,detailing,,personal_email,NEEDS_ENRICHMENT,
"Mobile Car Detailing in Stuart, FL | AIRLITE",info@airliteautodetailing.com,,https://airliteautodetailing.com/pages/mobile-car-detailing-stuart-fl?srsltid=AfmBOopWagPB1T1yUSqZS9bSQ6AU8UbDGOeUB0YX4jnToRm8LRRUiDWI,Stuart,FL,detailing,,personal_email,NEEDS_ENRICHMENT,
"Cameruski's Auto Detailing: Ceramic Coating & Detailing in Stuart, FL",info@camskisdetailing.com,,https://www.camskisdetailing.com/,Stuart,FL,detailing,,personal_email,NEEDS_ENRICHMENT,
"B&B Mobile Detailing - Stuart - Book Online - Prices, Reviews, Photos",info@booksy.com,,https://booksy.com/en-us/1531684_b-b-mobile-detailing_other_15884_stuart,Stuart,FL,detailing,,personal_email,NEEDS_ENRICHMENT,
Stuart mobile detailing - JonathanDetail,info@jonathandetailstuartflorida.com,,https://jonathandetailstuartflorida.com/stuart-mobile-detailing/,Stuart,FL,detailing,,personal_email,NEEDS_ENRICHMENT,
Service Areas | Mobile Detailing in Martin County & Surrounding ...,info@harvsdetails.com,,https://www.harvsdetails.com/service-areas,Stuart,FL,detailing,,personal_email,NEEDS_ENRICHMENT,
"Top Stuart, Florida Property Management Companies | APM",info@allpropertymanagement.com,,https://www.allpropertymanagement.com/property-management/fl/stuart/,Stuart,FL,property_mgmt,,personal_email,NEEDS_ENRICHMENT,
"24 Best Property Manager Companies in Stuart, FL - KeyCrew",contact@keycrew.co,,https://keycrew.co/providers/property-manager/fl/stuart/,Stuart,FL,property_mgmt,,personal_email,NEEDS_ENRICHMENT,
Real Property Management Sailfish Coast - Stuart FL Property ...,info@rpmsailfishcoast.com,,https://www.rpmsailfishcoast.com/,Stuart,FL,property_mgmt,,personal_email,NEEDS_ENRICHMENT,
"Top Property Management Companies in Stuart, FL | Birdeye",info@reviews.birdeye.com,,https://reviews.birdeye.com/d/property-management/stuart-fl/?page=3,Stuart,FL,property_mgmt,,personal_email,NEEDS_ENRICHMENT,
"Vacation Rental & Airbnb Management in Stuart, FL",info@hometeamluxuryrentals.com,,https://hometeamluxuryrentals.com/management/florida/stuart,Stuart,FL,property_mgmt,,personal_email,NEEDS_ENRICHMENT,
"Gutter Guard Installation Stuart, FL | Roof & Leaf Protection",info@gutterbro.team,,https://www.gutterbro.team/fl/stuart/gutters-guard-installation/,Stuart,FL,gutter,,personal_email,NEEDS_ENRICHMENT,
"15 Best Gutter Companies in Stuart, FL (2025 Reviews) - EcoWatch",info@ecowatch.com,,https://www.ecowatch.com/gutters/best-services/fl/stuart,Stuart,FL,gutter,,personal_email,NEEDS_ENRICHMENT,
"Gutter Installation Stuart, Florida - Code Red Roofers",info@coderedroofers.com,,https://coderedroofers.com/seamless-gutter-installation-stuart-fl/,Stuart,FL,gutter,,personal_email,NEEDS_ENRICHMENT,
GUTTER/INSTALL/CLEANING/LEAF GUARDS Category | Stuart ...,support@leaffilter.com,800-726-7703,https://cm-dev.stuartmartinchamber.org/list/category/gutter-cleaning-125?o=&dm=True,Stuart,FL,gutter,,personal_email,NEEDS_ENRICHMENT,
"10 Best Gutter Guard Companies in Stuart, FL - Today's Homeowner",info@todayshomeowner.com,,https://todayshomeowner.com/near-me/florida/stuart/gutter-guards/,Stuart,FL,gutter,,personal_email,NEEDS_ENRICHMENT,
"Gutter Installation & Repair In Stuart, FL - Walsh Roofing",info@walshroofing.com,,https://walshroofing.com/gutters/stuart/,Stuart,FL,gutter,,personal_email,NEEDS_ENRICHMENT,
Serving Stuart with over 40 years of experience,info@americaspridehandyman.com,,https://americaspridehandyman.com/handyman-services/stuart/,Stuart,FL,handyman,,personal_email,NEEDS_ENRICHMENT,
Scm Handyman Services,info@scm-handyman-services.com,,https://www.scm-handyman-services.com/,Stuart,FL,handyman,,personal_email,NEEDS_ENRICHMENT,
Palm City Property Management,info@homepropertymanagement.com,,https://www.homepropertymanagement.com/palm-city-property-management,Palm City,FL,property_mgmt,,personal_email,NEEDS_ENRICHMENT,
Palm City Property Management | RPM Sailfish Coast,info@rpmsailfishcoast.com,,https://www.rpmsailfishcoast.com/areas-we-serve/palm-city,Palm City,FL,property_mgmt,,personal_email,NEEDS_ENRICHMENT,
Property Management - J Conroy Construction,info@jconroyconstruction.com,,https://jconroyconstruction.com/services-portfolio/property-management/,Palm City,FL,property_mgmt,,personal_email,NEEDS_ENRICHMENT,
"Top Palm City, Florida Property Management Companies | APM",info@allpropertymanagement.com,,https://www.allpropertymanagement.com/property-management/fl/palm-city/,Palm City,FL,property_mgmt,,personal_email,NEEDS_ENRICHMENT,
KWPMC – Premier Property Management in Florida,info@kwpmc.com,,https://kwpmc.com/,Palm City,FL,property_mgmt,,personal_email,NEEDS_ENRICHMENT,
Palm City Property Management | South Florida Realty Management,info@floridapm.net,,https://www.floridapm.net/palm-city-property-management,Palm City,FL,property_mgmt,,personal_email,NEEDS_ENRICHMENT,
"Best Roofers in Stuart, FL | GAF Roofing Contractors",info@gaf.com,,https://www.gaf.com/en-us/roofing-contractors/residential/usa/fl/stuart,Stuart,FL,roofing,,personal_email,NEEDS_ENRICHMENT,
"The Metal Roof Experts | Top Roofing Company in Stuart, FL",info@themetalroofexperts.net,,https://themetalroofexperts.net/,Stuart,FL,roofing,,personal_email,NEEDS_ENRICHMENT,
"JT Roofing, Inc – Stuart Florida Roofing Specialists",info@jtroofinginc.com,,https://jtroofinginc.com/,Stuart,FL,roofing,,personal_email,NEEDS_ENRICHMENT,
"Roofing Company Stuart, FL | Ryan Holmes Contracting, Inc.",info@ryanholmescontracting.net,,https://ryanholmescontracting.net/areas-of-service/stuart-roofing-company/,Stuart,FL,roofing,,personal_email,NEEDS_ENRICHMENT,
"Warehouses for Lease in Stuart, FL | Crexi",info@crexi.com,,https://www.crexi.com/lease/properties/FL/Stuart/Warehouses,Stuart,FL,warehouse,,personal_email,NEEDS_ENRICHMENT,
Stuart Industrial and Warehouse Space For Rent & Lease - Showcase,info@showcase.com,,https://www.showcase.com/fl/stuart/warehouses/for-rent/,Stuart,FL,warehouse,,personal_email,NEEDS_ENRICHMENT,
"Stuart, FL Industrial & Warehouse Spaces for Rent - PropertyShark",info@propertyshark.com,,https://www.propertyshark.com/cre/industrial/us/fl/stuart/,Stuart,FL,warehouse,,personal_email,NEEDS_ENRICHMENT,
"Stuart, FL Industrial & Warehouse Space for Rent - CommercialSearch",info@commercialsearch.com,,https://www.commercialsearch.com/industrial/us/fl/stuart/,Stuart,FL,warehouse,,personal_email,NEEDS_ENRICHMENT,
"Martin County, FL Warehouses for Rent & Lease | Realmo",info@realmo.com,,https://realmo.com/warehouses/for-lease/fl/martin-county/,Stuart,FL,warehouse,,personal_email,NEEDS_ENRICHMENT,
"Stuart, FL Industrial & Warehouse Spaces for Rent - Commercial Cafe",info@commercialcafe.com,,https://www.commercialcafe.com/industrial/us/fl/stuart/,Stuart,FL,warehouse,,personal_email,NEEDS_ENRICHMENT,
Commercial Industrial Space,info@treasurecoastcommercialrealestate.com,,https://treasurecoastcommercialrealestate.com/commercial-industrial-space-lease-dominica-terr-stuart-fl/,Stuart,FL,warehouse,,personal_email,NEEDS_ENRICHMENT,
"Stuart, FL Industrial Space For Lease - CityFeet",info@cityfeet.com,,https://www.cityfeet.com/cont/stuart-fl/industrial-space-for-lease,Stuart,FL,warehouse,,personal_email,NEEDS_ENRICHMENT,
"House Cleaning Services in Stuart , FL 34997",info@cleaningsvcstuartfl.com,,https://cleaningsvcstuartfl.com/,Stuart,FL,cleaning,,personal_email,NEEDS_ENRICHMENT,
Home Cleaning Services,info@keimys.com,,https://www.keimys.com/,Stuart,FL,cleaning,,personal_email,NEEDS_ENRICHMENT,
"Olaf's Window Cleaning: Stuart, FL Window Cleaning Services",info@olafswindowcleaning.com,,https://olafswindowcleaning.com/,Stuart,FL,cleaning,,personal_email,NEEDS_ENRICHMENT,
Treasure Coast Life Real Estate Professionals,info@treasurecoastlife.net,,https://treasurecoastlife.net/,Stuart,FL,real_estate,,personal_email,NEEDS_ENRICHMENT,
"Investment Properties for Sale in Port St Lucie, Florida | 476+ Listings",info@houzeo.com,,https://www.houzeo.com/homes-for-sale/florida/port-st-lucie/investor-specials,Stuart,FL,real_estate,,personal_email,NEEDS_ENRICHMENT,
Jensen Beach Property Management,info@homepropertymanagement.com,,https://www.homepropertymanagement.com/jensen-beach-property-management,Jensen Beach,FL,property_mgmt,,personal_email,NEEDS_ENRICHMENT,
"Top Jensen Beach, Florida Property Management Companies | APM",info@allpropertymanagement.com,,https://www.allpropertymanagement.com/property-management/fl/jensen-beach/,Jensen Beach,FL,property_mgmt,,personal_email,NEEDS_ENRICHMENT,
Jensen Beach Property Management | RPM Sailfish Coast,info@rpmsailfishcoast.com,,https://www.rpmsailfishcoast.com/areas-we-serve/jensen-beach,Jensen Beach,FL,property_mgmt,,personal_email,NEEDS_ENRICHMENT,
Property Manager | JBCC HOA,info@jbcchoa.com,,https://www.jbcchoa.com/property-manager,Jensen Beach,FL,property_mgmt,,personal_email,NEEDS_ENRICHMENT,
Epoxy Floor Installation | XPS | Martin County,Info@SuperiorFloorCoating.com,772-773-1609,https://www.treasurecoastfloors.com/Martin_County_Florida_epoxy_floor_installation_contractor_company_quote,Stuart,FL,epoxy,,personal_email,NEEDS_ENRICHMENT,
Home | Kitchen and Bath Remodel from Stuart KBF,info@stuartkitchenbathandflooring.com,,https://stuartkitchenbathandflooring.com/,Stuart,FL,bathroom,,personal_email,NEEDS_ENRICHMENT,
"Kitchen Bath & Home Design | Remodel: Stuart, Florida",info@kitchenbathandhomedesign.com,,https://www.kitchenbathandhomedesign.com/,Stuart,FL,bathroom,,personal_email,NEEDS_ENRICHMENT,
"Bathroom Remodeling in Stuart, FL from Agler Kitchen, Bath & Floors",info@aglerinteriors.com,,https://www.aglerinteriors.com/bathroom-remodeling,Stuart,FL,bathroom,,personal_email,NEEDS_ENRICHMENT,
"East Coast Kitchen & Bath | Remodeling Services | Stuart, FL",info@eastcoastkitchenandbath.com,,https://www.eastcoastkitchenandbath.com/,Stuart,FL,bathroom,,personal_email,NEEDS_ENRICHMENT,
Bathroom Remodeling - Retrofits And Renovations,info@retrofitsandrenovations.com,,https://retrofitsandrenovations.com/remodeling/bathroom-remodeling/,Stuart,FL,bathroom,,personal_email,NEEDS_ENRICHMENT,
Home Remodeler | DreamMaker Bath & Kitchen of SE Florida | Stuart,info@dreammaker-stuart.com,,https://www.dreammaker-stuart.com/,Stuart,FL,bathroom,,personal_email,NEEDS_ENRICHMENT,
"Apartments for Rent in Stuart, FL - Homes.com",info@homes.com,,https://www.homes.com/stuart-fl/apartments-for-rent/,Stuart,FL,apartments,,personal_email,NEEDS_ENRICHMENT,
"Stuart, FL Apartments for Rent - 579 Rentals - HotPads",info@hotpads.com,,https://hotpads.com/stuart-fl/apartments-for-rent,Stuart,FL,apartments,,personal_email,NEEDS_ENRICHMENT,
"Apartments for Rent in Stuart, FL - New Listings Daily - RentCafe",info@rentcafe.com,,https://www.rentcafe.com/apartments-for-rent/us/fl/stuart/,Stuart,FL,apartments,,personal_email,NEEDS_ENRICHMENT,
St Lucie Property Management: Port St. Lucie Property Management ...,info@stluciepropertymanagement.com,,https://stluciepropertymanagement.com/,Port St Lucie,FL,property_mgmt,,personal_email,NEEDS_ENRICHMENT,
Port St. Lucie Property Management | SLW & Tradition,info@ubarrealty.com,,https://ubarrealty.com/property-management-services/,Port St Lucie,FL,property_mgmt,,personal_email,NEEDS_ENRICHMENT,
"Choice Properties | Property management | Port Saint Lucie, FL, USA",info@choicepropertiespsl.com,,https://www.choicepropertiespsl.com/,Port St Lucie,FL,property_mgmt,,personal_email,NEEDS_ENRICHMENT,
Floors Coating Service Stuart | 10x Better Epoxy - Floortek Coatings,info@floortekcoatings.com,,https://www.floortekcoatings.com/locations/stuart-florida,Stuart,FL,epoxy,,personal_email,NEEDS_ENRICHMENT,
Residential Epoxy Flooring Services in Stuart Florida,info@superiorfloorcoating.com,,https://superiorfloorcoating.com/residential-epoxy-stuart-fl/,Stuart,FL,epoxy,,personal_email,NEEDS_ENRICHMENT,
Walter M White General Contractor Stuart Fl,info@generalcontractorstuartfl.com,,https://generalcontractorstuartfl.com/,Stuart,FL,general_contractor,,personal_email,NEEDS_ENRICHMENT,
Gutter Guards Installation - MR INTEGRITY GUTTERS,info@mrintegritygutters.com,,https://mrintegritygutters.com/gutter-guards-installation/,Stuart,FL,gutter,,personal_email,NEEDS_ENRICHMENT,
Seamless Gutter Services in Stuart Florida - Gutter Hawk,info@gutterhawks.com,,https://www.gutterhawks.com/locations/stuart,Stuart,FL,gutter,,personal_email,NEEDS_ENRICHMENT,
"About TK Gutters | Martin County, FL",info@tkgutters.com,,https://www.tkgutters.com/about,Stuart,FL,gutter,,personal_email,NEEDS_ENRICHMENT,
"Super Gutters in Stuart, FL - Sanders Screening & Repair",info@sandersscreeningfl.com,,https://sandersscreeningfl.com/super-gutters/,Stuart,FL,gutter,,personal_email,NEEDS_ENRICHMENT,
RESTAURANTS Category | Stuart Martin County Chamber of ...,info@business.stuartmartinchamber.org,,https://business.stuartmartinchamber.org/members/category/restaurants-248,Stuart,FL,restaurant,,personal_email,SCRAPED_NO_NAME,
23 Fun Family Restaurants in Stuart + Martin County,info@treasurecoastmom.com,,https://treasurecoastmom.com/fun-family-restaurants-in-stuart-and-martin-county/,Stuart,FL,restaurant,,personal_email,NEEDS_ENRICHMENT,
69 Best Casual Restaurants in Stuart | OpenTable,info@opentable.com,,https://www.opentable.com/features/best-casual-restaurants-stuart-fl,Stuart,FL,restaurant,,personal_email,NEEDS_ENRICHMENT,
Stuart Apartments - PMC Property Group,info@pmcpropertygroup.com,,https://www.pmcpropertygroup.com/location/florida/stuart,Stuart,FL,property_mgmt,,personal_email,NEEDS_ENRICHMENT,
Hooks Construction,info@hooksconstruction.net,,https://hooksconstruction.net/,Stuart,FL,construction,,personal_email,NEEDS_ENRICHMENT,
Ferreira Construction: Homepage,info@ferreiraconstruction.com,,https://ferreiraconstruction.com/,Stuart,FL,construction,,personal_email,NEEDS_ENRICHMENT,
New & Used Cars For Sale | Wallace Auto Group | Stuart & Ft. Pierce,info@wallaceautogroup.com,,https://www.wallaceautogroup.com/?srsltid=AfmBOoo3GtFpMykLjRk1DRgMCPR4l-Jhlta2caTITpVLWjhWca6JYRvp,Stuart,FL,auto,,personal_email,NEEDS_ENRICHMENT,
"Victory Auto Store: Used Car Dealership in Stuart, FL",info@victoryautostore.com,,https://www.victoryautostore.com/,Stuart,FL,auto,,personal_email,V4_NO_DATA,
"Car Dealerships in Stuart, FL 34997 - Kelley Blue Book",sales@jldauto.net,772-283-6000,https://www.kbb.com/dealers/stuart-fl/,Stuart,FL,auto,,personal_email,NEEDS_ENRICHMENT,
Starling Buick GMC Stuart Named Best Car Dealer in Stuart for 2025,info@starlingbuickgmcstuart.com,,https://www.starlingbuickgmcstuart.com/best-car-dealer-stuart-2025-award/,Stuart,FL,auto,,personal_email,NEEDS_ENRICHMENT,
"Wallace Chevrolet - Chevrolet Dealership In Stuart, FL",info@wallacechevrolet.com,,https://www.wallacechevrolet.com/?srsltid=AfmBOoq-07gD0qI0G9DGfj9X26TW1ACx2SeFI37UeXlXXBgcKGWLVsIV,Stuart,FL,auto,,personal_email,NEEDS_ENRICHMENT,
"Encompass Health Rehabilitation Hospital, an affiliate of Martin Health",info@encompasshealth.com,,https://www.encompasshealth.com/locations/martin-rehab,Stuart,FL,healthcare,,personal_email,NEEDS_ENRICHMENT,
Cleveland Clinic Martin North Hospital (100044) - Free Profile,sales@ahd.com,,https://www.ahd.com/free_profile/100044/Cleveland-Clinic-Martin-North-Hospital/Stuart/Florida/,Stuart,FL,healthcare,,personal_email,NEEDS_ENRICHMENT,
"Cleveland Clinic Martin North Hospital - Stuart, FL - Castle Connolly",info@castleconnolly.com,,https://www.castleconnolly.com/top-hospitals/cleveland-clinic-martin-north-hospital-fla0921,Stuart,FL,healthcare,,personal_email,NEEDS_ENRICHMENT,
Luxury Estate and Home Property Management | South Florida ...,info@ihemfl.com,,https://ihemfl.com/,Stuart,FL,hoa,,personal_email,NEEDS_ENRICHMENT,
Evergreen Property Owners Association: Home,info@evergreenpoa.com,,https://evergreenpoa.com/,Stuart,FL,hoa,,personal_email,NEEDS_ENRICHMENT,
"Jupiter Stuart Port St. Lucie Custom Cabinets, Refacing & Remodeling",info@kitchentuneup.com,,https://www.kitchentuneup.com/stuart-fl/,Stuart,FL,kitchen,,personal_email,NEEDS_ENRICHMENT,
RDI Kitchens - Home Remodeling | Stuart FL,info@rdikitchens.com,,https://rdikitchens.com/,Stuart,FL,kitchen,,personal_email,NEEDS_ENRICHMENT,
Kitchen Remodeling in Stuart FL - Home & Beyond Services,info@homeandbeyondfl.com,,https://www.homeandbeyondfl.com/kitchens,Stuart,FL,kitchen,,personal_email,NEEDS_ENRICHMENT,
"Outdoor Kitchen Design Services In Stuart, Fl - Island Living & Patio",info@islandlivingpatio.com,,https://islandlivingpatio.com/stuart-outdoor-grill-design-9k3wbn/,Stuart,FL,kitchen,,personal_email,NEEDS_ENRICHMENT,
Stuart Kitchen Remodeling: Expert Kitchen Remodeling in Stuart,info@stuartkitchenremodeling.com,,https://stuartkitchenremodeling.com/,Stuart,FL,kitchen,,personal_email,NEEDS_ENRICHMENT,
"The Estates at Stuart in Stuart, FL | PMC Property Group Apartments",info@pmcpropertygroup.com,,https://www.pmcpropertygroup.com/properties/estates-stuart,Stuart,FL,apartments,,personal_email,NEEDS_ENRICHMENT,
RV detail stuart florida - JonathanDetail - Stuart car detailing,info@jonathandetailstuartflorida.com,,https://jonathandetailstuartflorida.com/,Stuart,FL,detailing,,personal_email,NEEDS_ENRICHMENT,
Car Detailing in Stuart FL | Mobile Car Detailing - National Detail Pros,info@nationaldetailpros.com,,https://nationaldetailpros.com/florida/stuart?srsltid=AfmBOop0JwWZ5gBUKrlg1u6sHmxVnuvC-F9Q84UjHSLDlfkjyBs5P2VP,Stuart,FL,detailing,,personal_email,NEEDS_ENRICHMENT,
St. Lucie/Treasure Coast Chapter - Florida Assisted Living Association,info@fala.org,,https://www.fala.org/st-lucietreasure-coast-chapter,Stuart,FL,apartments,,personal_email,NEEDS_ENRICHMENT,
"Top Property Managers in Palm City, FL - PropertyManagement.com",info@propertymanagement.com,,https://propertymanagement.com/location/fl/palm-city,Palm City,FL,property_mgmt,,personal_email,NEEDS_ENRICHMENT,
"Top Property Managers in Palm City, Florida 34990",info@propertymanagement.com,,https://propertymanagement.com/location/fl/palm-city/34990,Palm City,FL,property_mgmt,,personal_email,NEEDS_ENRICHMENT,
ROSSMAN REALTY PROPERTY MANAGEMENT,info@rossmanrentals.com,,https://www.rossmanrentals.com/,Palm City,FL,property_mgmt,,personal_email,NEEDS_ENRICHMENT,
Central-Florida | Specialized Property Management Orlando,info@thepropertymanagementspecialist.com,407-682-3355,https://specializedpropertymanagementorlando.com/central-florida/,Palm City,FL,property_mgmt,,personal_email,NEEDS_ENRICHMENT,
"Lakeside Property Management, LLC: HOA Community ...",info@lakesidepmgt.com,,https://lakesidepmgt.com/,Palm City,FL,property_mgmt,,personal_email,NEEDS_ENRICHMENT,
Team Parks: Home,admin@teamparksinc.com,,https://www.teamparksinc.com/,Stuart,FL,construction,,personal_email,V4_NO_DATA,
REAL ESTATE/PROPERTY MANAGEMENT Category | Stuart Martin ...,info@business.stuartmartinchamber.org,,https://business.stuartmartinchamber.org/members/category/real-estate-property-management-2113,Stuart,FL,property_mgmt,,personal_email,NEEDS_ENRICHMENT,
"MEYERS GROUP – Meyers Group, founded by respected real ...",info@meyersgroup.net,,https://meyersgroup.net/,Stuart,FL,property_mgmt,,personal_email,NEEDS_ENRICHMENT,
Best assisted living communities in Treasure Coast | SENIORS.FYI,info@seniors.fyi,,https://seniors.fyi/assisted-living/florida/treasure-coast,Stuart,FL,apartments,,personal_email,NEEDS_ENRICHMENT,
Senior Living options in Treasure Coast | Oasis Senior Advisors,info@oasissenioradvisors.com,,https://www.oasissenioradvisors.com/locations/treasure-coast/,Stuart,FL,apartments,,personal_email,NEEDS_ENRICHMENT,
Assisted Living - CarePatrol of The Treasure Coast,info@carepatrol.com,,https://carepatrol.com/the-treasure-coast/services/assisted-living/,Stuart,FL,apartments,,personal_email,NEEDS_ENRICHMENT,
"14 Assisted Living Facilities in Vero Beach, FL (with Reviews)",info@seniorhomes.com,,https://www.seniorhomes.com/florida/vero-beach/,Stuart,FL,apartments,,personal_email,NEEDS_ENRICHMENT,
Remodeling Contractor Jensen Beach | Island Kitchen & Bath,info@ikbconstruction.com,,https://ikbconstruction.com/areas-of-service/jensen-beach-remodeling-contractor/,Jensen Beach,FL,kitchen,,personal_email,NEEDS_ENRICHMENT,
"Kitchen & Bathroom Remodeling in Jensen Beach, FL",info@glsremodeling.com,,https://www.glsremodeling.com/jensenbeach,Jensen Beach,FL,kitchen,,personal_email,NEEDS_ENRICHMENT,
"Nex-Gen Partners Property Management | Port St. Lucie, FL ...",info@nex-genpartners.com,,https://nex-genpartners.com/,Port St Lucie,FL,property_mgmt,,personal_email,NEEDS_ENRICHMENT,
"Agler Kitchen, Bath & Floors: Flooring store in Stuart, FL",info@aglerinteriors.com,,https://www.aglerinteriors.com/,Stuart,FL,kitchen,,personal_email,NEEDS_ENRICHMENT,
Best Restaurants in Stuart Florida,info@stuartfishgrill.com,,https://stuartfishgrill.com/best-restaurants-in-stuart-florida/,Stuart,FL,restaurant,,personal_email,NEEDS_ENRICHMENT,
"La Grande Martier | Low-Country Cuisine in Stuart, FL",info@grandemartier.com,,https://www.grandemartier.com/,Stuart,FL,restaurant,,personal_email,NEEDS_ENRICHMENT,
"General Contractor & Construction - West Palm Beach | Stuart, FL",info@onecallflorida.com,,http://www.onecallflorida.com/,Stuart,FL,general_contractor,,personal_email,NEEDS_ENRICHMENT,
"Professional Roofing of Stuart, FL",info@professionalroofinginc.com,,https://www.professionalroofinginc.com/,Stuart,FL,roofing,,personal_email,NEEDS_ENRICHMENT,
"#1 Roofing Company In Stuart, FL | Top-Notch Roofer",info@foxhavenroof.com,,https://foxhavenroof.com/services/residential-roofing/stuart/,Stuart,FL,roofing,,personal_email,NEEDS_ENRICHMENT,
Jensen Beach Property Management - Snowbird Caretaker Services,info@snowbirdcaretakers.com,,https://snowbirdcaretakers.com/jensen-beach/,Jensen Beach,FL,property_mgmt,,personal_email,NEEDS_ENRICHMENT,
Vacation Home Property Management Services | Hutchinson Island ...,info@nettlesislandrental.com,,https://www.nettlesislandrental.com/property-management-services/,Jensen Beach,FL,property_mgmt,,personal_email,NEEDS_ENRICHMENT,
"The 10 Best Mobile Auto Detailing in Stuart, FL - PreferredMechanic",info@preferredmechanic.com,,https://preferredmechanic.com/mobile-auto-detailing-experts/stuart-martin-fl/,Stuart,FL,detailing,,personal_email,NEEDS_ENRICHMENT,
"Best Auto Body Shops near Stuart, FL - Carwise.com",admin@carwise.com,,https://www.carwise.com/auto-body-shops/fl/stuart,Stuart,FL,auto,,personal_email,NEEDS_ENRICHMENT,
Collision Body Shop | Wallace Auto Group In Stuart,info@wallaceautogroup.com,,https://www.wallaceautogroup.com/collision-repair-center.html?srsltid=AfmBOoobOMEugS5XbjPs-xZFx2Mhc_aci9UTeVSzuDDRUjX90KIphDvb,Stuart,FL,auto,,personal_email,NEEDS_ENRICHMENT,
Auto Repair in Stuart | Caliber Collision,admin@caliber.com,,https://www.caliber.com/find-a-location/stuart,Stuart,FL,auto,,personal_email,NEEDS_ENRICHMENT,
"The 10 Best Auto Body Repair in Stuart, FL - PreferredMechanic",info@preferredmechanic.com,,https://preferredmechanic.com/auto-body-repairs/stuart-martin-fl/,Stuart,FL,auto,,personal_email,NEEDS_ENRICHMENT,
"Kia Collision Body Shop In Stuart, FL - Wallace Kia",info@wallacekiaofstuart.com,,https://www.wallacekiaofstuart.com/wallace-collision-center-stuart-fl.html?srsltid=AfmBOop6M5tW8xjWm4Is6poVwwjmM5m5FAm5I_yWPjXJqK8d_yay2-vK,Stuart,FL,auto,,personal_email,NEEDS_ENRICHMENT,
"Certified Collision Experts in Stuart, FL, 34994 | Auto Body Shops",admin@carwise.com,,https://www.carwise.com/auto-body-shops/certified-collision-experts-stuart-fl-34994/472726,Stuart,FL,auto,,personal_email,NEEDS_ENRICHMENT,
Featured Treasure Coast Realty Group Property Listings | Crexi.com,info@crexi.com,,https://www.crexi.com/brokerage/Treasure_Coast_Realty_Group,Stuart,FL,real_estate,,personal_email,NEEDS_ENRICHMENT,
Treasure Island Beachfront Investment Properties,info@mygulfcoastproperty.com,,https://www.mygulfcoastproperty.com/treasure-island-condos/all-treasure-island-beachfront-investment-properties/,Stuart,FL,real_estate,,personal_email,NEEDS_ENRICHMENT,
"Wallace Chrysler, Jeep, Dodge, Ram & Wagoneer Dealership In ...",info@wallacecjd.com,,https://www.wallacecjd.com/?srsltid=AfmBOopcgdS-19MVzXAReJGWT77cKXtqU31z7TyZ_ra85CXA4Kd8juel,Stuart,FL,auto,,personal_email,NEEDS_ENRICHMENT,
CFREIA,info@cfreia.com,,https://www.cfreia.com/,Stuart,FL,real_estate,,personal_email,NEEDS_ENRICHMENT,
Best Realtor & Brokerage for Real Estate Investors on the Treasure ...,info@echofineproperties.com,,https://www.echofineproperties.com/best-realtor-brokerage-for-real-estate-investors-on-the-treasure-coast/,Stuart,FL,real_estate,,personal_email,NEEDS_ENRICHMENT,
Treasure Coast Real Estate Investors Association - Meetup,sales@meetup.com,,https://www.meetup.com/treasure-coast-real-estate-investor-connection/,Stuart,FL,real_estate,,personal_email,NEEDS_ENRICHMENT,
Treasure Coast Investor - BiggerPockets,info@biggerpockets.com,,https://www.biggerpockets.com/forums/552/topics/582248-treasure-coast-investor,Stuart,FL,real_estate,,personal_email,NEEDS_ENRICHMENT,
Our Agents | The Brokerage Treasure Coast,info@thebrokeragetc.com,,https://www.thebrokeragetc.com/agents,Stuart,FL,real_estate,,personal_email,NEEDS_ENRICHMENT,
Real Treasure Coast Real Estate Blog,info@realtreasurecoast.com,,https://www.realtreasurecoast.com/blog/,Stuart,FL,real_estate,,personal_email,NEEDS_ENRICHMENT,
Florida's Treasure Coast Offers Natural Allure for Investors in ...,info@circlesquaredalts.com,,https://www.circlesquaredalts.com/floridas-treasure-coast-offers-natural-allure-for-investors-in-multifamily-housing/,Stuart,FL,real_estate,,personal_email,NEEDS_ENRICHMENT,
10 Amazing Bars and Restaurants in Martin County You Have to Try,info@emilyluxton.co.uk,,https://www.emilyluxton.co.uk/usa-martin-county-restaurants/,Stuart,FL,restaurant,,personal_email,NEEDS_ENRICHMENT,
Floridian Management Group: Florida Property Management,info@floridianmanagement.com,,https://floridianmanagement.com/,Stuart,FL,hoa,,personal_email,NEEDS_ENRICHMENT,
"Apartments For Rent in Stuart, FL",info@rent.com,,https://www.rent.com/florida/stuart-apartments,Stuart,FL,apartments,,personal_email,NEEDS_ENRICHMENT,
"Superior Floor Coatings, LLC.: Home",info@superiorfloorcoating.com,,https://superiorfloorcoating.com/,Palm City,FL,epoxy,,personal_email,NEEDS_ENRICHMENT,
Palm City | Ox Floors,admin@oxfloors.com,,https://www.oxfloors.com/palm-city-3,Palm City,FL,epoxy,,personal_email,NEEDS_ENRICHMENT,
BMA Property Management | Trusted Florida Rental Experts,info@bmapropertymanagement.com,,https://bmapropertymanagement.com/,Palm City,FL,property_mgmt,,personal_email,NEEDS_ENRICHMENT,
55+ Active Adult Communities in Treasure Coast - Del Webb,info@delwebb.com,,https://www.delwebb.com/homes/florida/treasure-coast,Stuart,FL,apartments,,personal_email,NEEDS_ENRICHMENT,
Custom Kitchen Design Experts - Stuart Kitchen Remodeling,info@stuartkitchenremodeling.com,,https://stuartkitchenremodeling.com/custom-kitchen-design,Stuart,FL,kitchen,,personal_email,NEEDS_ENRICHMENT,
The Real Estate Leaders of the Treasure Coast of FL,info@stuartmartinchamber.org,772-288-1111,https://www.remax-stuart-fl.com/,Stuart,FL,real_estate,,personal_email,NEEDS_ENRICHMENT,
"Investment Property for Sale in Port St. Lucie, FL - Mashvisor",info@mashvisor.com,,https://www.mashvisor.com/locations/florida/port-st.%2520lucie-investment-property-for-sale/c,Stuart,FL,real_estate,,personal_email,NEEDS_ENRICHMENT,
"Serving Jensen beach, FL - Prestige Remodeling Contractors LLC",Info@prc-experts.con,(561) 563-5444,https://prestigeremodelingcontractors.org/jensen-beach,Jensen Beach,FL,kitchen,,personal_email,V4_NO_DATA,
Port Saint Lucie Property Management Companies,sales@managemyproperty.com,,https://www.managemyproperty.com/find/florida/port-saint-lucie-property-management-companies-city,Port St Lucie,FL,property_mgmt,,personal_email,NEEDS_ENRICHMENT,
Home & Beyond Services: Residential & Commercial Renovations,info@homeandbeyondfl.com,,https://www.homeandbeyondfl.com/,Stuart,FL,handyman,,personal_email,NEEDS_ENRICHMENT,
"Extreme Performace | Stuart, FL Automotive Customization Shop",info@extremeperformance.biz,,https://extremeperformance.biz/,Stuart,FL,auto,,personal_email,NEEDS_ENRICHMENT,
"Gutter Guard Installation in Stuart, FL - Costs 01 / 2026 - homeyou",contact@homeyou.com,,https://www.homeyou.com/fl/gutter-guard-installation-stuart-costs,Stuart,FL,gutter,,personal_email,NEEDS_ENRICHMENT,
"Rain Gutter Guards & Downspout Extensions Port St Lucie, PSL ...",info@gutterguyofflorida.com,,https://gutterguyofflorida.com/contact-us/,Stuart,FL,gutter,,personal_email,NEEDS_ENRICHMENT,
"Expert Roofing Inspections and Replacement in Stuart, FL",info@levelbestroofing.com,,https://www.levelbestroofing.com/,Stuart,FL,roofing,,personal_email,NEEDS_ENRICHMENT,
Watson Property Management,info@watsonrent.com,,https://www.watsonrent.com/,Port St Lucie,FL,property_mgmt,,personal_email,V4_NO_DATA,
"Home Remodeling Jensen Beach, FL | db Home Improvements",info@dbhiproducts.com,,https://www.dbhiproducts.com/home-remodeling-contractor-in-jensen-beach-fl/,Jensen Beach,FL,kitchen,,personal_email,NEEDS_ENRICHMENT,
Treasure Property Group. Real Estate Services in Florida,info@treasurepropertygroup.com,,https://www.treasurepropertygroup.com/,Stuart,FL,real_estate,,personal_email,NEEDS_ENRICHMENT,
Gutter Installation Services by Gutter Hawk,info@gutterhawks.com,,https://www.gutterhawks.com/gutter-services/gutter-installation,Stuart,FL,gutter,,personal_email,NEEDS_ENRICHMENT,
"Gutter Installation Stuart, FL – Veteran Owned – Stateline Gutters ...",sales@statelinegutters.com,,https://www.statelinegutters.com/florida/stuart-gutter-installation/,Stuart,FL,gutter,,personal_email,NEEDS_ENRICHMENT,
Home - Whitemarsh Reserve HOA,info@whitemarshreserve.com,,https://www.whitemarshreserve.com/,Stuart,FL,hoa,,personal_email,NEEDS_ENRICHMENT,
"Kitchen Remodeling Services in Stuart, FL",info@garciaandsonsconstruct.com,772.283.8912,https://www.superiortileinteriors.com/kitchen-remodeling,Stuart,FL,kitchen,,personal_email,NEEDS_ENRICHMENT,
Kitchen remodeling services in Stuart - Local General Contractor,info@garciaandsonsconstruct.com,,https://garciaandsonsconstruct.com/solutions/kitchen-remodeling-services-in-stuart/,Stuart,FL,kitchen,,personal_email,NEEDS_ENRICHMENT,
"Grand Oaks of Jensen Beach, Florida | Assisted Living and Memory ...",info@grandoaksjensenbeach.com,,https://www.grandoaksjensenbeach.com/,Stuart,FL,apartments,,personal_email,NEEDS_ENRICHMENT,
Classic Collision Treasure Coast,contact@classiccollision.com,,https://classiccollision.com/locations/classic-collision-treasure-coast/,Stuart,FL,auto,,personal_email,NEEDS_ENRICHMENT,
"3776 SE Dixie Hwy Stuart, FL 34997",info@autodentrepair.co,,http://autodentrepair.co/evans%2520auto%2520body.htm,Stuart,FL,auto,,personal_email,NEEDS_ENRICHMENT,
Industrial Warehouse Space,info@treasurecoastcommercialrealestate.com,,https://treasurecoastcommercialrealestate.com/870-pop-tilton-pl-jensen-beach-warehouse-space-for-lease/,Stuart,FL,warehouse,,personal_email,NEEDS_ENRICHMENT,
Nex-Gen Partners Property Management,info@nex-genpartners.com,,https://nex-genpartners.com/,Port St Lucie,FL,property_manager,,personal_email,NEEDS_ENRICHMENT,
REAL ESTATE/PROPERTY MANAGEMENT Category,info@business.stuartmartinchamber.org,,https://business.stuartmartinchamber.org/members/category/real-estate-property-management-2113,Stuart,FL,hoa,,personal_email,NEEDS_ENRICHMENT,
Ecosystem Restoration and Management,info@martin.fl.us,,https://www.martin.fl.us/EcoRestoration,Stuart,FL,hoa,,personal_email,NEEDS_ENRICHMENT,
"Best 15 Kitchen Remodelers in Jensen Beach, FL",info@houzz.com,,https://www.houzz.com/professionals/kitchen-remodelers/jensen-beach-fl-us-probr0-bo~t_34334~r_4160171?fi=15,Jensen Beach,FL,restaurant,,personal_email,NEEDS_ENRICHMENT,
Commercial Cleaning,contact@eastsidechemdry.com,,https://eastsidechemdry.com/commercial-cleaning,Stuart,FL,cleaning,,personal_email,NEEDS_ENRICHMENT,
Treasure Coast Real Estate Investors Association,sales@meetup.com,,https://www.meetup.com/treasure-coast-real-estate-investor-connection/,Stuart,FL,real_estate,,personal_email,NEEDS_ENRICHMENT,
Treasure Coast Investor,info@biggerpockets.com,,https://www.biggerpockets.com/forums/552/topics/582248-treasure-coast-investor,Stuart,FL,real_estate,,personal_email,NEEDS_ENRICHMENT,
Port Saint Lucie Real Estate Investment Club,info@freedommentor.com,,https://www.freedommentor.com/port-saint-lucie-real-estate-investment-club/,Stuart,FL,real_estate,,personal_email,NEEDS_ENRICHMENT,
"INFINITI Stuart: Infiniti Dealership in Stuart, FL",info@infinitistuart.com,,https://www.infinitistuart.com/,Stuart,FL,auto_shop,,personal_email,NEEDS_ENRICHMENT,
"Epoxy Flooring in Vero Beach, FL",contact@homeyou.com,,https://www.homeyou.com/fl/epoxy-flooring-vero-beach-costs,Vero Beach,FL,auto_shop,,personal_email,NEEDS_ENRICHMENT,
"Palm City, FL Commercial Maintenance Services",info@brightview.com,,https://www.brightview.com/local/palm-city-fl/landscape-maintenance,Palm City,FL,property_manager,,personal_email,NEEDS_ENRICHMENT,
"Car Team USA: Used Car Dealer in Stuart, FL",info@carteamusa.com,,https://www.carteamusa.com/,Stuart,FL,auto,,personal_email,NEEDS_ENRICHMENT,
"SPF Epoxy: Epoxy Flooring Palm Beach & St. Lucie County, FL",sales@spfepoxy.com,,https://spfepoxy.com/,Palm City,FL,epoxy,,personal_email,NEEDS_ENRICHMENT,
Property Management: Palm Beach Gardens - FirstService Residential,info@fsresidential.com,,https://www.fsresidential.com/florida/offices/palm-beach-gardens-property-management/,Palm City,FL,property_mgmt,,personal_email,NEEDS_ENRICHMENT,
Kitchen Remodeling Services In Jensen Beach - Coastal Flooring,info@coastalflooring.net,,https://coastalflooring.net/kitchen-remodeling-services-in-jensen-beach/,Jensen Beach,FL,kitchen,,personal_email,NEEDS_ENRICHMENT,
Jensen Beach Home Renovations | Licensed & Insured,info@homeandbeyondfl.com,,https://www.homeandbeyondfl.com/jensen-beach,Jensen Beach,FL,kitchen,,personal_email,NEEDS_ENRICHMENT,
Bathroom Remodeling in Stuart FL - Home & Beyond Services,info@homeandbeyondfl.com,,https://www.homeandbeyondfl.com/bathrooms,Stuart,FL,bathroom,,personal_email,NEEDS_ENRICHMENT,
Stuart Bathroom Contractors - DreamMaker Bath & Kitchen,info@dreammaker-stuart.com,(561) 459-1004,https://www.dreammaker-remodel.com/seflorida/stuart-bathroom-contractors/,Stuart,FL,bathroom,,personal_email,NEEDS_ENRICHMENT,
Expert Construction Project Management Firm Stuart FL,info@jkellyadvisors.com,,https://www.jkellyadvisors.com/construction-project-management-firm-stuart-fl/,Stuart,FL,construction,,personal_email,NEEDS_ENRICHMENT,
"Find Small Business (SBE) Contractors in Stuart, FL - Procore",info@procore.com,,https://www.procore.com/network/us/fl/stuart/sbe,Stuart,FL,construction,,personal_email,NEEDS_ENRICHMENT,
NAI Southcoast | Commercial Real Estate Services,info@naisouthcoast.com,,https://www.naisouthcoast.com/,Stuart,FL,property_mgmt,,personal_email,NEEDS_ENRICHMENT,
Stuart's Top Car Detailing | Get Your Price Instantly - Panda Hub,info@pandahub.com,,https://www.pandahub.com/car-detailing/stuart-fl,Stuart,FL,detailing,,personal_email,NEEDS_ENRICHMENT,
"14 Assisted Living Facilities in Martin County, FL (with Reviews)",info@seniorhomes.com,,https://www.seniorhomes.com/florida/martin-county/,Stuart,FL,apartments,,personal_email,NEEDS_ENRICHMENT,
"Treasure Coast - 2025 Pricing, Photos, Reviews in Port St. Lucie, FL",info@assistedlivingcenter.com,,https://www.assistedlivingcenter.com/facilities/fl/port-st-lucie/treasure-coast-alf-34953/,Stuart,FL,apartments,,personal_email,NEEDS_ENRICHMENT,
"Custom Auto Center in Stuart, FL, 34994 | Auto Body Shops",admin@carwise.com,,https://www.carwise.com/auto-body-shops/custom-auto-center-stuart-fl-34994/464668,Stuart,FL,auto,,personal_email,NEEDS_ENRICHMENT,
Stuart Industrial Space For Rent | Commercial Leasing | Crexi.com,info@crexi.com,,https://www.crexi.com/lease/properties/FL/Stuart/Industrial,Stuart,FL,warehouse,,personal_email,NEEDS_ENRICHMENT,
CONTACT US | mysite - Jensen Beach Club,info@jensenbeachclub.com,,https://www.jensenbeachclub.com/contact-us,Jensen Beach,FL,property_mgmt,,personal_email,NEEDS_ENRICHMENT,
Expert Kitchen Remodeling in Stuart,info@stuartkitchenremodeling.com,,https://stuartkitchenremodeling.com/,Stuart,FL,restaurant,client,personal_email,NEEDS_ENRICHMENT,
Home,info@stuartkitchenbathandflooring.com,,https://stuartkitchenbathandflooring.com/,Stuart,FL,restaurant,client,personal_email,NEEDS_ENRICHMENT,
"Stuart, Florida",info@kitchenbathandhomedesign.com,,https://www.kitchenbathandhomedesign.com/,Stuart,FL,restaurant,client,personal_email,NEEDS_ENRICHMENT,
Kitchen Renovation Company,info@islandhomesfl.com,,https://islandhomesfl.com/kitchen-renovation-company-stuart-fl/,Stuart,FL,restaurant,client,personal_email,NEEDS_ENRICHMENT,
"Flooring store in Stuart, FL",info@aglerinteriors.com,,https://www.aglerinteriors.com,Stuart,FL,restaurant,client,personal_email,NEEDS_ENRICHMENT,
"Kitchen Remodeling in Stuart, FL from Agler Kitchen, Bath & Floors",info@aglerinteriors.com,,https://www.aglerinteriors.com/kitchen-remodeling,Stuart,FL,restaurant,client,personal_email,NEEDS_ENRICHMENT,
Jensen Beach Club Condos For Sale,info@zfc.com,,https://www.zfc.com/real-estate/Jensen-Beach/Jensen-Beach-Club/,Jensen Beach,FL,hoa,client,personal_email,NEEDS_ENRICHMENT,
"Jensen Beach Club, Hutchinson Island, FL Condos For Sale",info@amprorealty.com,,https://amprorealty.com/martin-county/hutchinson-island-fl-real-estate/jensen-beach-club/,Jensen Beach,FL,hoa,client,personal_email,NEEDS_ENRICHMENT,
CONTACT US,info@jensenbeachclub.com,,https://www.jensenbeachclub.com/contact-us,Jensen Beach,FL,hoa,client,personal_email,NEEDS_ENRICHMENT,
Home,info@jbcchoa.com,,https://www.jbcchoa.com,Jensen Beach,FL,hoa,client,personal_email,NEEDS_ENRICHMENT,
Islandia II Condominium,info@islandiatwo.com,,https://islandiatwo.com/,Jensen Beach,FL,hoa,client,personal_email,NEEDS_ENRICHMENT,
Jensen Beach Club Hutchinson Island 6 Homes for Sale,info@echofineproperties.com,,https://www.echofineproperties.com/communities/hutchinson-island/jensen-beach-club/,Jensen Beach,FL,hoa,client,personal_email,NEEDS_ENRICHMENT,
The Princess Condominium,info@princesscondo.net,,https://princesscondo.net/,Jensen Beach,FL,hoa,client,personal_email,NEEDS_ENRICHMENT,
Jensen Beach Club,info@jensenbeachclub.com,,https://www.jensenbeachclub.com/,Jensen Beach,FL,hoa,client,personal_email,NEEDS_ENRICHMENT,
55+ Community in Port St. Lucie,info@encoreattradition.com,,https://www.encoreattradition.com/,Port St Lucie,FL,healthcare,client,personal_email,NEEDS_ENRICHMENT,
Home,hello@avivaportstlucie.com,,https://avivaportstlucie.com/,Port St Lucie,FL,healthcare,client,personal_email,NEEDS_ENRICHMENT,
Harbor Place at Port St. Lucie,info@centurypa.com,,https://www.centurypa.com/senior-living/harbor-place-port-st-lucie/,Port St Lucie,FL,healthcare,client,personal_email,NEEDS_ENRICHMENT,
Port St. Lucie Luxury Assisted Living,admin@watercrestseniorliving.com,,https://watercrestseniorliving.com/st-lucie-west/,Port St Lucie,FL,healthcare,client,personal_email,NEEDS_ENRICHMENT,
Assisted Living Facility in Port St. Lucie,info@colliersassistedliving.com,,https://colliersassistedliving.com/port-st-lucie-assisted-living/,Port St Lucie,FL,healthcare,client,personal_email,NEEDS_ENRICHMENT,
The Palms of St. Lucie West,info@fivestarseniorliving.com,,https://www.fivestarseniorliving.com/communities/fl/port-st-lucie/the-palms-of-st-lucie-west/,Port St Lucie,FL,healthcare,client,personal_email,NEEDS_ENRICHMENT,
Sinceri Senior Living – The Gardens of Port St. Lucie,info@sinceriseniorliving.com,,https://sinceriseniorliving.com/the-gardens-of-port-st-lucie/,Port St Lucie,FL,healthcare,client,personal_email,NEEDS_ENRICHMENT,
"55+ Communities in Port St. Lucie and Fort Pierce, Florida",info@spanishlakes.com,,https://spanishlakes.com/,Port St Lucie,FL,healthcare,client,personal_email,NEEDS_ENRICHMENT,
Car Wash In Port St. Lucie,help@mistercarwash.com,,https://mistercarwash.com/store/port-st-lucie/,Port St. Lucie,FL,car wash owner,client,personal_email,NEEDS_ENRICHMENT,
My first place,info@myfirstplaceacademy.com,772-634-0738,https://myfirstplaceacademy.com/,Port St. Lucie,FL,daycare center,client,personal_email,NEEDS_ENRICHMENT,
Fire Stations,info@slcfd.org,772-621-3400,https://www.slcfd.com/153/Fire-Stations,Port St. Lucie,FL,fire station,client,personal_email,NEEDS_ENRICHMENT,
Station 16,info@slcfd.org,772-621-3400,https://www.slcfd.com/246/Station-16,Port St. Lucie,FL,fire station,client,personal_email,NEEDS_ENRICHMENT,
Station 17,info@slcfd.org,772-621-3400,https://www.slcfd.com/247/Station-17,Port St. Lucie,FL,fire station,client,personal_email,NEEDS_ENRICHMENT,
Station 13,info@slcfd.org,772-621-3400,https://www.slcfd.com/243/Station-13,Port St. Lucie,FL,fire station,client,personal_email,NEEDS_ENRICHMENT,
Station 12,info@slcfd.org,772-621-3400,https://www.slcfd.com/242/Station-12,Port St. Lucie,FL,fire station,client,personal_email,NEEDS_ENRICHMENT,
Contact,info@slcfd.org,772-621-3400,https://www.slcfd.com/271/Contact,Port St. Lucie,FL,fire station,client,personal_email,NEEDS_ENRICHMENT,
Stack Burger,INFO@STACK772.COM,(772) 254-4373,https://www.stack772.com/,Stuart,FL,fast food franchise,client,personal_email,NEEDS_ENRICHMENT,
Contact Starpro at 772-286-8308 for Roof Installation or Repair Starpro Roofing and Sheet Metal,info@starproroofing.com,772-286-8310,https://starproroofing.com/contact/,Stuart,FL,roofing contractor,contractor,personal_email,NEEDS_ENRICHMENT,
Vero Beach Dock Builders,admin@verodock.com,772.234.4250,https://verodock.com/,Vero Beach,FL,loading dock facility,client,personal_email,NEEDS_ENRICHMENT,
"Dock Builders in Vero Beach, FL",admin@verodock.com,888-820-8850,https://vbfl.com/directory/vero-beach/marine-construction/dock-builders/,Vero Beach,FL,loading dock facility,client,personal_email,NEEDS_ENRICHMENT,
"dock builders Vero Beach in Vero Beach, FL",admin@verodock.com,772-234-4250,https://vbfl.com/search/vero/dock-builders-vero-beach/,Vero Beach,FL,loading dock facility,client,personal_email,NEEDS_ENRICHMENT,
Elite Dental Care of Florida,info@elitedcfl.com,772.872.1317,https://www.elitedcfl.com/,Stuart,FL,dental office,client,personal_email,NEEDS_ENRICHMENT,
"Childcare & Preschool in Stuart, FL",contact@littleeinsteinacademy.com,772-220-3322,https://littleeinsteinacademy.com/,Stuart,FL,daycare center,client,personal_email,NEEDS_ENRICHMENT,
Contact,office@spallonefamilydentistry.com,772 567 5100,https://www.spallonefamilydentistry.com/contact,Vero Beach,FL,dental office,client,personal_email,NEEDS_ENRICHMENT,
Kitchen and Bathroom Remodeling Services in Port St Lucie,admin@moderndynamicbuilders.com,561-975-1187,https://www.moderndynamicbuilders.com/port-saint-lucie/,Port St. Lucie,FL,kitchen renovation contractor,contractor,personal_email,NEEDS_ENRICHMENT,
Business Directory Search,info@stuartmartinchamber.org,772-287-1088,https://business.stuartmartinchamber.org/members,Stuart,FL,manufacturing plant,client,personal_email,NEEDS_ENRICHMENT,
Contact,Admin@TCCommercialRE.com,(772) 288-6646,https://tccommercialre.com/contact/,Stuart,FL,commercial real estate,client,personal_email,NEEDS_ENRICHMENT,
"Electrician in Port St. Lucie, FL",office@ehmanelectric.com,772-519-8646,https://ehmanelectric.com/,Port St. Lucie,FL,electrician,contractor,personal_email,NEEDS_ENRICHMENT,
Contact Us,info@chezfrenchies.com,(772) 234-2809,https://www.chezfrenchies.com/contact/,Vero Beach,FL,restaurant franchise,client,personal_email,NEEDS_ENRICHMENT,
Chez Frenchie's Steaks and Seafood Restaurant,info@chezfrenchies.com,(772) 234-2809,https://www.chezfrenchies.com/,Vero Beach,FL,restaurant franchise,client,personal_email,NEEDS_ENRICHMENT,
"Ocean Grill Vero Beach, FL",admin@ocean-grill.com,772-231-5409,https://www.ocean-grill.com/,Vero Beach,FL,restaurant franchise,client,personal_email,NEEDS_ENRICHMENT,
Contact Us,info@besossalon.com,772-287-2740,https://besossalon.com/contact-us/,Stuart,FL,salon spa,client,personal_email,NEEDS_ENRICHMENT,
Contact Us – Clouddayspa,info@clouddayspa.com,,https://clouddayspa.com/pages/contact,Stuart,FL,salon spa,client,personal_email,NEEDS_ENRICHMENT,
Atticus Aviation,Sales@AtticusAviation.com,(772) 207-7953,https://atticusaviation.com/,Port St. Lucie,FL,aircraft hangar,client,personal_email,NEEDS_ENRICHMENT,
Market Fresh on the Move,info@tcfoodbank.org,772.489.3034,https://stophunger.org/get-help/market-fresh-onthemove/,Vero Beach,FL,grocery store manager,client,personal_email,NEEDS_ENRICHMENT,
Kitchen remodeling services in Stuart,info@garciaandsonsconstruct.com,561-631-2025,https://garciaandsonsconstruct.com/solutions/kitchen-remodeling-services-in-stuart/,Stuart,FL,kitchen renovation contractor,contractor,personal_email,NEEDS_ENRICHMENT,
"Home Remodeling in Stuart, FL",Info@allcoastdbr.com,(772) 510-4182,https://allcoastdbr.com,Stuart,FL,kitchen renovation contractor,contractor,personal_email,NEEDS_ENRICHMENT,
Sailfish Marina of Stuart,info@sailfishmarinastuart.com,(772)283-1122,https://sailfishmarinastuart.com/,Stuart,FL,loading dock facility,client,personal_email,NEEDS_ENRICHMENT,
Stuart Dock,admin@stuartdock.com,772.242.3625,https://stuartdock.com/,Stuart,FL,loading dock facility,client,personal_email,NEEDS_ENRICHMENT,
"Contact Loading Dock,. – Serving NYC & NJ",info@loadingdock.com,973-471-4060,https://www.loadingdock.com/contact-us,Stuart,FL,loading dock facility,client,personal_email,NEEDS_ENRICHMENT,
"Plaza at St. Lucie West, Port St. Lucie, FL 34986 – Retail Space",info@regencycenters.com,,https://www.regencycenters.com/property/detail/80100/Plaza-at-St-Lucie-West,Port St. Lucie,FL,retail store owner,client,personal_email,NEEDS_ENRICHMENT,
Stuart Fire Rescue,info@stuartmartinchamber.org,772-287-1088,https://business.stuartmartinchamber.org/members/member/stuart-fire-rescue-7812,Stuart,FL,fire station,client,personal_email,NEEDS_ENRICHMENT,
Get a Quote for Flooring & Tile,contact@tilesofstuartfl.com,(772) 291-2059,https://tilesofstuartfl.com/contact/,Stuart,FL,tile installation,contractor,personal_email,NEEDS_ENRICHMENT,
"Church in Stuart, FL Homepage",info@gracestuart.com,772.692.1995,https://www.gracestuart.com/,Stuart,FL,church religious facility,client,personal_email,NEEDS_ENRICHMENT,
Belle Shops Village Shops,Sales@belleshops.com,772.231.1554,https://www.belleshops.com/blogs/store-data/belle-cose-vero-beach,Vero Beach,FL,retail store owner,client,personal_email,V4_NO_DATA,
Chamber Of Commerce,info@verochamber.com,,https://www.verochamber.com/,Vero Beach,FL,retail store owner,client,personal_email,NEEDS_ENRICHMENT,
Belle Shops Ocean Drive,Sales@belleshops.com,772.231.1558,https://www.belleshops.com/blogs/store-data/belle-cose-ocean-drive-vero-beach,Vero Beach,FL,retail store owner,client,personal_email,NEEDS_ENRICHMENT,
Home,contact@RidgelineRoofingFL.com,772-643-0745,https://ridgelineroofingfl.com/,Vero Beach,FL,roofing contractor,contractor,personal_email,V4_NO_DATA,
"Florida General Contractor: Stuart Turner General Contracting,.",info@stgcinc.com,(727) 449-2837,http://www.stgcinc.com/contact.htm,Stuart,FL,general contractor,contractor,personal_email,NEEDS_ENRICHMENT,
Velocity 1 Gym,Info@velocity1gym.com,772-217-8973,https://velocity1gym.com/,Vero Beach,FL,gym fitness center,client,personal_email,NEEDS_ENRICHMENT,
Vero Fitness,info@verofitness.fit,(772) 567-1400,https://verobeach.macaronikid.com/directory/637651ef2b0b6576482871c2/vero-fitness,Vero Beach,FL,gym fitness center,client,personal_email,NEEDS_ENRICHMENT,
Coastal Heating & Air Conditioning,info@coastalacstuart.com,(772) 288-4829,https://coastalacstuart.com/,Stuart,FL,HVAC contractor,contractor,personal_email,NEEDS_ENRICHMENT,
Contact Us,info@ladiespro.com,800-524-3534,https://www.ladiespro.com/pages/contact-us,Stuart,FL,retail store owner,client,personal_email,NEEDS_ENRICHMENT,
Contact Us,info@stuartmartinchamber.org,(772) 287-1088,https://business.stuartmartinchamber.org/contact,Stuart,FL,retail store owner,client,personal_email,NEEDS_ENRICHMENT,
Home,office@faithchurchpsl.org,772-879-6155,https://faithchurchpsl.org/,Port St. Lucie,FL,church religious facility,client,personal_email,NEEDS_ENRICHMENT,
Cold Storage in Florida,info@lsrfreezer.com,,https://lsrfreezer.com/florida-cold-storage-solutions-company/,Port St. Lucie,FL,cold storage facility,client,personal_email,NEEDS_ENRICHMENT,
